Name,Home page URL,Contact page URL,SNAC Code,Address Line 1,Address Line 2,Town,City,County,Postcode,Telephone Number 1 Description,Telephone Number 1,Telephone Number 2 Description,Telephone Number 2,Telephone Number 3 Description,Telephone Number 3,Fax,Main Contact Email,Opening Hours
Adur District Council,http://www.adur.gov.uk,http://www.adur.gov.uk/contact-us/index.htm,45UB,Civic Centre,Ham Road,Shoreham-by-Sea,,West Sussex,BN43 6PR,Main switchboard,01273 263 000,,,,,01273 263 224,info@adur.gov.uk,
Allerdale Borough Council,http://www.allerdale.gov.uk,http://www.allerdale.gov.uk/contact-or-find-us.aspx,16UB,Allerdale House,,Workington,,Cumbria,CA14 3YJ,,01900 702 702,,,,,01900 702 507,enquiries@allerdale.gov.uk,
Amber Valley Borough Council,http://www.ambervalley.gov.uk/,http://www.ambervalley.gov.uk/environment-and-planning/land-and-premises/council-buildings/council-offices.aspx,17UB,Town Hall,Market Place,Ripley,,Derbyshire,DE5 3BT,General enquires,01773 570 222,Out of hours emergency,01773 841 414,,,01773 841 616,,
Arun District Council,http://www.arun.gov.uk/,http://www.arun.gov.uk/cgi-bin/buildpage.pl?mysql=187,45UC,Maltavers Road,,Littlehampton,,West Sussex,BN17 5LF,,01903 737 500,,,,,01903 730 442,info@arun.gov.uk,
Ashfield District Council,http://www.ashfield-dc.gov.uk/,http://www.ashfield-dc.gov.uk/ccm/navigation/useful-links/contact-us/,37UB,Council Offices,Urban Road,Kirkby in Ashfield,,Nottinghamshire,NG17 8DA,,01623 450 000,Out of hours emergency,01623 550 077,,,01623 457 585,info@ashfield-dc.gov.uk,
Ashford Borough Council,http://www.ashford.gov.uk/,http://www.ashford.gov.uk/ashford_borough_council/contact_us.aspx,29UB,Civic Centre,Tannery Lane,Ashford,,Kent,TN23 1PL,Call centre,01233 331 111,,,,,,customer.care@ashford.gov.uk,
Aylesbury Vale District Council,http://www.aylesburyvaledc.gov.uk/,http://www.aylesburyvaledc.gov.uk/council-democracy/comments-compliments-complaints/ways-to-contact-us/,11UB,Customer Service Centre,66 High Street,Aylesbury,,Buckinghamshire,HP20 1SD,General enquiries,01296 585 858,,,,,01296 585 640,custserv@aylesburyvaledc.gov.uk,
Babergh District Council,http://www.babergh.gov.uk,http://www.babergh.gov.uk/contact-us/,42UB,Corks Lane,,Hadleigh,,Suffolk,IP7 6SJ,General enquiries,01473 826 622,Switchboard,01473 822 801,,,01473 823 594,enquiries@babergh-south-suffolk.gov.uk,
London Borough of Barking and Dagenham,http://www.lbbd.gov.uk/,http://www.lbbd.gov.uk/Contactus/Pages/home.aspx,00AB,Civic Centre,Rainham Road North,Dagenham,,,RM10 7BN,Contact centre,020 8215 3000,Out of hours emergency,020 8594 8356,,,020 8227 5184,3000direct@lbbd.gov.uk,
London Borough of Barnet,http://www.barnet.gov.uk/,http://www.barnet.gov.uk/contact-us.htm,00AC,North London Business Park (NLBP),Oakleigh Road South,London,,,N11 1NP,,020 8359 2000,,,,,020 8359 4156,first.contact@barnet.gov.uk,
Barnsley Metropolitan Borough Council,http://www.barnsley.gov.uk/,http://www.barnsley.gov.uk/contact,00CC,PO Box 634,,Barnsley,,South Yorkshire,S70 9GG,Main switchboard,01226 770770,,,,,01226 773099,online@barnsley.gov.uk,9:00 - 17:00
Basildon District Council,http://www.basildon.gov.uk/,http://www.basildon.gov.uk/contactus,22UB,The Basildon Centre,St. Martin's Square,Basildon,,Essex,SS14 1DL,Main switchboard,01268 533 333,Out of hours emergency,01268 286 622,,,01268 294 350,mailroom@basildon.gov.uk,
Basingstoke and Deane Borough Council,http://www.basingstoke.gov.uk/,http://www.basingstoke.gov.uk/council/contact/contactus,24UB,Civic Offices,London Road,Basingstoke,,Hampshire,RG21 4AH,Contact centre,01256 844 844,,,,,01256 845 200,info@basingstoke.gov.uk,
Bassetlaw District Council,http://www.bassetlaw.gov.uk/,http://www.bassetlaw.gov.uk/about_us/contact_and_find_us.aspx,37UC,Queen s Buildings,Potter Street,Worksop,,Nottinghamshire,S80 2AH,General enquiries,01909 533 533,Out of hours emergency,01909 501 999,,,01909 501 758,customer.services@bassetlaw.gov.uk,
Bath & North East Somerset Council,http://www.bathnes.gov.uk/,http://www.bathnes.gov.uk/contactus,00HA,The Guildhall,High Street,,Bath,Bath & North East Somerset,BA1 5AW,Switchboard,01225 477 000,Out of hours emergency,01225 477 477,,,01225 477 809,councilconnect@bathnes.gov.uk,
Bedford Council &#40 Unitary&#41,http://www.bedford.gov.uk/,http://www.bedford.gov.uk/findus,00KB,Bedford Borough Council,Borough Hall,Cauldwell Street,Bedford.,,MK42 9AP,,01234 267422,Textphone,,,,01234 221606,centralp@bedford.gov.uk,
London Borough of Bexley,http://www.bexley.gov.uk/,http://www.bexley.gov.uk/index.aspx?articleid 2624,00AD,Civic Offices,Broadway,Bexleyheath,,Kent,DA6 7LB,Switchboard,020 8303 7777,Out of hours emergency,020 8303 7171,,,020 8249 6796,customer.services@bexley.gov.uk,
Birmingham City Council,http://www.birmingham.gov.uk/,http://www.birmingham.gov.uk/contact,00CN,Council House,Victoria Square,,Birmingham,,B1 1BB,General enquiries,0121 303 1111,Waste issues,0121 303 1112,,0121 303 1119,,contact@birmingham.gov.uk,
Blaby District Council,http://www.blaby.gov.uk/,http://www.blaby.gov.uk/contact/,31UB,Council Offices,Desford Road,Narborough,Leicester,Leicestershire,LE19 2EP,Switchboard,01162 750 555,Out of hours emergencies,0844 736 9545,,,0116 275 0368,customer.services@blaby.gov.uk,"Monday, Tuesday, and Thursday 8.45 am to 5.15 pm Wednesday 9.30 am to 5.15 pm Fr"
Blackburn with Darwen Borough Council,http://www.blackburn.gov.uk/,http://www.blackburn.gov.uk/contact/,00EX,King William Street,Town Hall,Blackburn,,Lancashire,BB1 7DY,General enquiries,01254 585 585,Out of hours emergency,07970 841 192,,,,info@blackburn.gov.uk,
Blackpool Borough Council,http://www.blackpool.gov.uk,http://www.blackpool.gov.uk/ContactUs.htm,00EY,PO Box 50,Town Hall,Blackpool,,Lancashire,FY1 1AD,Switchboard,01253 478744,Out of hours emergency,01253 477 477,,,,customer.first@blackpool.gov.uk,Monday to Friday 8.30 am to 5.15 pm. Saturday 10.00 am to 1.00 pm
Bolsover District Council,http://www.bolsover.gov.uk/,http://www.bolsover.gov.uk/contact-us.html,17UC,Sherwood Lodge,Oxcroft Lane,Bolsover,,Derbyshire,S44 6NF,Switchboard,01246 242 424,,,,,01246 242 423,enquiries@bolsover.gov.uk,
Bolton Metropolitan Borough Council,http://www.bolton.gov.uk/,http://www.bolton.gov.uk/website/corporatepages/pages/contactus.aspx,00BL,Town Hall,Victoria Square,Bolton,,Lancashire,BL1 1RU,Customer services,01204 333 333,Out of hours emergency,01204 336 900,,,,bolton@bolton.gov.uk,
Boston Borough Council,http://www.boston.gov.uk/,http://www.boston.gov.uk/index.aspx?articleid=3589,32UB,Municipal Buildings,West Street,Boston,,Lincolnshire,PE21 8QR,,01205 314 200,Out of hours emergency,01205 360 300,,,01205 364 604,info@boston.gov.uk,
Bournemouth Borough Council,http://www.bournemouth.gov.uk/,http://www.bournemouth.gov.uk/AdviceBenefits/ContactUs/ContactUs.aspx,00HN,Town Hall,Bourne Avenue,Bournemouth,,Dorset,BH2 6DY,Switchboard,01202 451 451,Out of hours emergency,01202 451 145,,,01202 451 000,enquiries@bournemouth.gov.uk,
Bracknell Forest Council,http://www.bracknell-forest.gov.uk/,http://www.bracknell-forest.gov.uk/contactus,00MA,Time Square,Market Street,Bracknell,,Berkshire,RG12 1JD,Customer services,01344 352 000,Out of hours emergency,01344 786 515,,,,customer.services@bracknell-forest.gov.uk,
Bradford Metropolitan District Council,http://www.bradford.gov.uk/,http://www.bradford.gov.uk/contact_us.htm,00CX,City Hall,Centenary Square,Bradford,,,BD1 1HY,Switchboard,01274 432111,,,,,01274 740 456,,
Braintree District Council,http://www.braintree.gov.uk/,http://www.braintree.gov.uk/braintree/contact,22UC,Causeway House,Bocking End,Braintree,,Essex,CM7 9HB,Customer Service Centre,01376 552 525,,,,,01376 552 626,csc@braintree.gov.uk,09.00 - 17.30
Breckland District Council,http://www.breckland.gov.uk/,http://www.breckland.gov.uk/content/contact-us,33UB,Elizabeth House,Walpole Loke,Dereham,,Norfolk,NR19 1EE,,01362 656 870,,,,,,contactus@breckland.gov.uk,
London Borough of Brent,http://www.brent.gov.uk/,http://www.brent.gov.uk/contact,00AE,Town Hall,Forty Lane,Wembley,,,HA9 9HD,,020 8937 1234,,,,,020 8937 1989,customer.services@brent.gov.uk,
Brentwood Borough Council,http://www.brentwood.gov.uk/,http://www.brentwood.gov.uk/index.php?cid=1054,22UD,Town Hall,Ingrave Road,Brentwood,,Essex,CM15 8AY,,01277 312 500,,,,,01277 312 743,enquiries@brentwood.gov.uk,
Brighton & Hove City Council,http://www.brighton-hove.gov.uk/,http://www.brighton-hove.gov.uk/index.cfm?request=b1153064,00ML,Kings House,Grand Avenue,Hove,,East Sussex,BN3 2LS,,01273 290000,,,,01273 290111,,info@brighton-hove.gov.uk,Monday to Friday 9am to 5pm
Broadland District Council,http://www.broadland.gov.uk/,http://www.broadland.gov.uk/194.asp,33UC,Thorpe Lodge,1 Yarmouth Road,Norwich,,Norfolk,NR7 0DU,General enquiries,01603 431 133,,,,,01603 300 087,reception@broadland.gov.uk,
London Borough of Bromley,http://www.bromley.gov.uk/,http://www.bromley.gov.uk/council/contact,00AF,Civic Centre,Stockwell Close,Bromley,,,BR1 3UH,Main switchboard,020 8464 3333,,,,,020 8313 4707,csc@bromley.gov.uk,
Bromsgrove District Council,http://www.bromsgrove.gov.uk/,http://bromsgrove.whub.org.uk/cms/community-and-living/customer-services/customer-centres/get-in-touch.aspx,47UB,The Council House,Burcot Lane,Bromsgrove,,Worcestershire,B60 1AA,Switchboard,01527 873 232,Out of hours emergency,01527 871 565,,,01527 881 414,worcestershirehub@bromsgrove.gov.uk,
Borough of Broxbourne,http://www.broxbourne.gov.uk/,http://www.broxbourne.gov.uk/council_and_democracy/customer_services/contact_us.aspx,26UB,Borough Offices,Bishops' College,Cheshunt,,Hertfordshire,EN8 9XQ,General enquiries,01992 785 555,Out of hours emergencies,01992 639 561,,,,enquiries@broxbourne.gov.uk,
Broxtowe Borough Council,http://www.broxtowe.gov.uk/,http://www.broxtowe.gov.uk/contact,37UD,Town Hall,Foster Avenue,Beeston,Nottingham,Nottinghamshire,NG9 1AB,,01159 177 777,,,,,01159 173 030,customerservices@broxtowe.gov.uk,"Monday to Thursday 0830 - 1700, Friday 0830-1630"
Buckinghamshire County Council,http://www.buckscc.gov.uk/,http://www.buckscc.gov.uk/sites/bcc/about_your_council/Contact_us.page,11,County Hall,Walton Street,Aylesbury,,,HP20 1UA,Reception,0845 370 8090,,,,,,customerservices@buckscc.gov.uk,
Burnley Borough Council,http://www.burnley.gov.uk/,http://www.burnley.gov.uk/site/scripts/contact.php,30UD,Town Hall,,Burnley,,Lancashire,BB11 9SA,General enquiries,01282 425 011,Out of hours emergency,01254 384 940,,,,enquiries@burnley.gov.uk,
Calderdale Metropolitan Borough Council,http://www.calderdale.gov.uk/,http://www.calderdale.gov.uk/siteinfo/contacts/contacts.html,00CY,Town Hall,Crossley Street,Halifax,,,HX1 1UJ,General enquiries,0845 245 6000,Out of hours emergency,01422 365 101,,,,customer.first@calderdale.gov.uk,
Cambridge City Council,http://www.cambridge.gov.uk/,http://www.cambridge.gov.uk/contact,12UB,The Guildhall,,,Cambridge,,CB2 3QJ,Customer services,01223 457000,Out of hours emergency,01223 457457,,,,enquiries@cambridge.gov.uk,
Cambridgeshire County Council,http://www.cambridgeshire.gov.uk,http://www.cambridgeshire.gov.uk/contact.htm,12,Shire Hall,Castle Hill,,Cambridge,Cambridgeshire,CB3 0AP,General enquiries,0345 045 5200,,,,,01480 376748,info@cambridgeshire.gov.uk,
London Borough of Camden,http://www.camden.gov.uk/,http://www.camden.gov.uk/ccm/navigation/council-and-democracy/about-the-council/how-to-contact-us/,00AG,Camden Town Hall,Judd Street,London,,,WC1H 9JE,Switchboard (includes 24 hour emergency cover),020 7974 4444,,,,,020 7974 6209,info@camden.gov.uk,
Cannock Chase District Council,http://www.cannockchasedc.gov.uk/,http://www.cannockchasedc.gov.uk/site/scripts/contact.php,41UB,PO Box 28,Beecroft Road,Cannock,,Staffordshire,WS11 1BG,,01543 462 621,,,,,01543 462 317,customerservices@cannockchasedc.gov.uk,
Canterbury City Council,http://www.canterbury.gov.uk/,http://www.canterbury.gov.uk/contact,29UC,Military Road,,Canterbury,,Kent,CT1 1YW,,01227 862 000,Out of hours emergency,01227 781 879,,,01227 862 020,customer.services@canterbury.gov.uk,
Carlisle City Council,http://www.carlisle.gov.uk,http://www.carlisle.gov.uk,16UD,Civic Centre,Rickergate,,Carlisle,,CA3 8QG,Customer Services,01228 817200,Main Switchboard,01228 817000,,,,customerservices@carlisle.gov.uk,Monday to Thursday 9am to 5pm. Friday 9am to 4pm.
Castle Point Borough Council,http://www.castlepoint.gov.uk/,http://www.castlepoint.gov.uk/main.cfm?MenuId=11085,22UE,Kiln Road,Thundersley,Benfleet,,Essex,SS7 1TF,Switchboard,01268 882 200,Out of hours emergency,01268 758 357,,,01268 882 455,info@castlepoint.gov.uk,
Charnwood Borough Council,http://www.charnwood.gov.uk/,http://www.charnwood.gov.uk/contacts.html,31UC,Council Offices,Southfields Road,Loughborough,,Leicestershire,LE11 2TN,Switchboard,01509 263151,,,,,01509 219723,information@charnwood.gov.uk,
Chelmsford City Council,http://www.chelmsford.gov.uk/,http://www.chelmsford.gov.uk/contactus,22UF,Civic Centre,Duke Street,Chelmsford,,Essex,CM1 1JE,Switchboard,01245 606 606,,,,,01245 606 693,mailbox@chelmsford.gov.uk,"Monday - Thursday, 8.45am to 4.45pm and Friday, 8.45am - 4.15pm"
Cheltenham Borough Council,http://www.cheltenham.gov.uk/,http://www.cheltenham.gov.uk/site/scripts/contact.php,23UB,Municipal Offices,Promenade,Cheltenham,,Gloucestershire,GL50 9SA,Switchboard,01242 262 626,,,,,01242 227 131,enquiries@cheltenham.gov.uk,
Cherwell District Council,http://www.cherwell-dc.gov.uk/,http://www.cherwell.gov.uk/index.cfm?articleid 1136,38UB,Bodicote House,Bodicote,Banbury,,Oxfordshire,OX15 4AA,General enquiries,01295 252 535,,,,,01295 270 028,,
Cheshire East Council (Unitary),http://www.cheshireeast.gov.uk/,http://www.cheshireeast.gov.uk/,00EQ,Westfields,Middlewich Road,Sandbach,Cheshire,,CW11 1HZ,Customer service centre,0300 123 55 00,,,,,,info@cheshireeast.gov.uk,
Chesterfield Borough Council,http://www.chesterfield.gov.uk/site/default.asp,https://secure.chesterfield.gov.uk/contact/default.aspx,17UD,Town Hall,Rose Hill,Chesterfield,,Derbyshire,S40 1LP,Switchboard,01246 345 345,,,,,01246 345 252,,
Chichester District Council,http://www.chichester.gov.uk/,http://www.chichester.gov.uk/index.cfm?articleid 4629,45UD,East Pallant House,1 East Pallant,Chichester,,West Sussex,PO19 1TY,Switchboard,01243 785 166,,,,,01243 776 766,contact@chichester.gov.uk,
Chiltern District Council,http://www.chiltern.gov.uk/,http://www.chiltern.gov.uk/site/scripts/contact.php,11UC,King George V Road,,Amersham,,Buckinghamshire,HP6 5AW,,01494 729 000,,,,,,info@chiltern.gov.uk,
Chorley Council,http://www.chorley.gov.uk/,http://www.chorley.gov.uk/index.aspx?articleid=1999,30UE,Civic Offices,Union Street,Chorley,,Lancashire,PR7 1AL,Customer Services,01257 515 151,Out of hours emergency,01257 515 142,,,01257 515 150,contact@chorley.gov.uk,
Christchurch Borough Council,http://www.dorsetforyou.com/,http://www.dorsetforyou.com/index.jsp?articleid=387923,19UC,Civic Offices,Bridge Street,Christchurch,,Dorset,BH23 1AZ,Customer services,01202 495 000,SMS mobile,07781 480 191,,,01202 495 107,customerservices@christchurch.gov.uk,
Colchester Borough Council,http://www.colchester.gov.uk/,http://www.colchester.gov.uk,22UG,Rowan House,33 Sheepen Road,Colchester,,Essex,CO3 3WG,Switchboard,01206 282 222,,,,,01206 282 288,customer.services@colchester.gov.uk,9-5
Copeland Borough Council,http://www.copeland.gov.uk,http://www.copeland.gov.uk,16UE,The Copeland Centre,Catherine Street,Whitehaven,,Cumbria,CA28 7SJ,,0845 054 8600,,,,,,info@copelandbc.gov.uk,
Corby Borough Council,http://www.corby.gov.uk/,http://www.corby.gov.uk/site-page/customer-services,34UB,The Corby Cube,George Street,Corby,,Northants,NN17 1QG,Switchboard,01536 464 000,Out of hours emergency,01536 400 088,typetalk,18001 ? 01536 464000,,customer.first@corby.gov.uk,"8:30am - 5:00pm Mon - Fri, 9:00am - 12:00pm Sat"
Cornwall Council (Unitary),http://www.cornwall.gov.uk/,http://www.cornwall.gov.uk/default.aspx?page=2105,00HE,County Hall,Treyew Road,Truro,,Cornwall,TR1 3AY,Switchboard (24 hours),0300 1234 100,Out of hours emergency,0300 1234 100,,,,customerservices@cornwall.gov.uk,
City of London,http://www.cityoflondon.gov.uk/,http://www.cityoflondon.gov.uk/contact-us/Pages/default.aspx,00AA,PO Box 270,Guildhall,London,,,EC2P 2EJ,Switchboard,020 7606 3030,,,,,,pro@cityoflondon.gov.uk,
Cotswold District Council,http://www.cotswold.gov.uk/,http://www.cotswold.gov.uk/nqcontent.cfm?a_id=8268,23UC,Trinity Road,,Cirencester,,Gloucestershire,GL7 1PX,,01285 623 000,,01285 623 900,,,,cdc@cotswold.gov.uk,
Coventry City Council,http://www.coventry.gov.uk/,http://www.coventry.gov.uk/contactus,00CQ,Council House,Earl Street,Coventry,,,CV1 5RR,General enquiries,024 7683 3333,Out of hours emergency,024 7683 2222,Minicom,0500 431 143,,coventrydirect@coventry.gov.uk,"Our Contact Centre is open 8am - 8pm Monday to Friday, and 9am ? 1pm Saturday"
Craven District Council,http://www.cravendc.gov.uk/,http://www.cravendc.gov.uk/article/1165/Contact-Us,36UB,Belle Vue Square,Broughton Road,Skipton,,North Yorkshire,BD23 1FJ,,01756 700 600,,,,,,contactus@cravendc.gov.uk,
Crawley Borough Council,http://www.crawley.gov.uk/,http://www.crawley.gov.uk/stellent/idcplg?IdcService=SS_GET_PAGE&nodeId=70,45UE,Town Hall,The Boulevard,Crawley,,West Sussex,RH10 1UZ,,01293 438 000,Out of hours emergency,01293 551 636,,,01293 511 803,comments@crawley.gov.uk,
London Borough of Croydon,http://www.croydon.gov.uk,http://www.croydon.gov.uk/contact-us/phone,00AH,Taberner House,Park Lane,Croydon,,,CR9 3JS,General enquiries,020 8726 6000,,,,,020 8688 6185,contact.thecouncil@croydon.gov.uk,
Cumbria County Council,http://www.cumbria.gov.uk/,http://www.cumbria.gov.uk/contact/default.asp,16,Headquarters,The Courts,Carlisle,,Cumbria,CA3 8NA,,01228 606 060,,,,,01228 606 327,information@cumbriacc.gov.uk,
Dacorum Council,http://www.dacorum.gov.uk/,http://www.dacorum.gov.uk/contact,26UC,Civic Centre,Marlowes,Hemel Hempstead,,Hertfordshire,HP1 1HH,Switchboard,01442 228 000,,,,,,feedback@dacorum.gov.uk,
Darlington Borough Council,http://www.darlington.gov.uk/,http://www.darlington.gov.uk/Generic/Contacts/contactus.htm,00EH,Town Hall,Feethams,Darlington,,County Durham,DL1 5QT,Customer service,01325 380651,Out of hours emergency,07976 752447,,,,enquiries@darlington.gov.uk,
Dartford Borough Council,http://www.dartford.gov.uk/,http://www.dartford.gov.uk/contact/,29UD,Civic Centre,Home Gardens,Dartford,,Kent,DA1 1DR,Customer services,01322 343 434,Out of hours emergency,0845 6341212,,,01322 343 422,customer.services@dartford.gov.uk,
Daventry District Council,http://www.daventrydc.gov.uk,http://www.daventrydc.gov.uk/contact-us/,34UC,Lodge Road,,Daventry,,Northants,NN11 5AF,,01327 871 100,,,,,01327 300 011,comments@daventrydc.gov.uk,
Derby City Council,http://www.derby.gov.uk/,http://www.derby.gov.uk/contact-the-council/,00FK,1 Albion Street,,Derby,,Derbyshire,DE1 2PR,General enquiries,01332 293 111,,,,,01332 256 121,customer.services@derby.gov.uk,
Derbyshire County Council,http://www.derbyshire.gov.uk/,http://www.derbyshire.gov.uk/council/contact_us/default.asp,17,County Hall,,Matlock,,Derbyshire,DE4 3AG,Call Derbyshire,08456 058 058,,,,,01629 533295,contact.centre@derbyshire.gov.uk,8am to 8pm Monday to Friday and 9.30am to 4pm Saturdays
Derbyshire Dales District Council,http://www.derbyshiredales.gov.uk,http://www.derbyshiredales.gov.uk/your-council/council-departments,17UF,Town Hall,Bank Road,Matlock,,Derbyshire,DE4 3NN,General enquiries,01629 761 100,,,,,,enquiries@derbyshiredales.gov.uk,9am - 5pm
Devon County Council,http://www.devon.gov.uk/,http://www.devon.gov.uk/index/contact_us.htm,18,County Hall,Topsham Road,Exeter,,Devon,EX2 4QD,General enquiries,0845 155 1015,,,,,0845 155 1003,customer@devon.gov.uk,
Doncaster Metropolitan Borough Council,http://www.doncaster.gov.uk/,http://www.doncaster.gov.uk/Talk_to_us/Contact_the_Council/Contact_Us.asp,00CE,PO Box 257,The Council House,Doncaster,,South Yorkshire,DN1 1BR,Customer services,01302 736 000,,,,,,general.enquiries@doncaster.gov.uk,
Dorset County Council,http://www.dorsetforyou.com/,http://www.dorsetforyou.com/index.jsp?articleid=387924,19,County Hall,Colliton Park,Dorchester,,Dorset,DT1 1XJ,,01305 251 000,,,,,,dorsetdirect@dorsetcc.gov.uk,
Dover District Council,http://www.dover.gov.uk/,http://www.dover.gov.uk/contact_us.aspx,29UE,White Cliffs Business Park,,Dover,,Kent,CT16 3PJ,Customer services,01304 821 199,,,,,01304 872 444,customerservices@dover.gov.uk,Monday - Friday 9am-5pm
Durham County Council,http://www.durham.gov.uk/,http://www.durham.gov.uk/Pages/Service.aspx?ServiceId=5644,00EJ,County Hall,,,Durham,County Durham,DH1 5UL,General Enquiries,0300 1237070,,,,,01913 834 500,,
East Cambridgeshire District Council,http://www.eastcambs.gov.uk/,http://www.eastcambs.gov.uk/customer-services/contact-customer-services,12UC,The Grange,Nutholt Lane,Ely,,Cambridgeshire,CB7 4EE,Customer services,01353 665555,Out of hours emergency,07710 978900,,,01353 665240,customerservices@eastcambs.gov.uk,
East Devon District Council,http://www.eastdevon.gov.uk,http://www.eastdevon.gov.uk/contact_eddc,18UB,Council Offices,Knowle,Sidmouth,,Devon,EX10 8HL,Switchboard,01395 516 551,Out of hours emergency,01395 516 854,,,01395 517 507,csc@eastdevon.gov.uk,"from 8.30am until 5.00pm, Monday to Friday"
East Dorset District Council,http://www.dorsetforyou.com/,http://www.dorsetforyou.com/index.jsp?articleid=387926,19UD,Council Offices,Furzehill,Wimborne,,Dorset,BH21 4HN,,01202 886 201,,,,,01202 841 390,,
East Hampshire District Council,http://www.easthants.gov.uk/,http://www.easthants.gov.uk/home.nsf/ContactUs?OpenForm,24UC,Penns Place,,Petersfield,,Hampshire,GU31 4EX,,01730 266 551,,,,,,info@easthants.gov.uk,
East Hertfordshire District Council,http://www.eastherts.gov.uk/,http://www.eastherts.gov.uk/index.jsp?articleid=9923,26UD,The Causeway,,Bishops Stortford,,Hertfordshire,CM23 2EN,,01279 655 261,,,,,01279 502 106,enquiries@eastherts.gov.uk,
East Lindsey District Council,http://www.e-lindsey.gov.uk/,http://www.e-lindsey.gov.uk/contact+us/,32UC,Tedder Hall,Manby Park,Louth,,Lincolnshire,LN11 8UP,,01507 601 111,,,,,01507 600 206,customerservices@e-lindsey.gov.uk,
East Northamptonshire Council,http://www.east-northamptonshire.gov.uk/,http://www.east-northamptonshire.gov.uk/contact,34UD,East Northamptonshire House,Cedar Drive,Thrapston,,Northants,NN14 4LZ,,01832 742 000,,,,,01832 734 839,info@east-northamptonshire.gov.uk,
East Riding of Yorkshire Council,http://www.eastriding.gov.uk/,http://www2.eastriding.gov.uk/council/contact-the-council/contact-us/,00FB,County Hall,,Beverley,,,HU17 9BA,Customer services,01482 393 939,,,,,01482 393 375,customer.services@eastriding.gov.uk,
East Staffordshire Borough Council,http://www.eaststaffsbc.gov.uk/,http://www.eaststaffsbc.gov.uk/pages/contactus.aspx,41UC,Town Hall,,Burton upon Trent,,Staffordshire,DE14 2EB,,01283 508 000,,,,,01283 535 412,reception@eaststaffsbc.gov.uk,
East Sussex County Council,http://www.eastsussex.gov.uk/,http://www.eastsussex.gov.uk/contactus/default.htm,21,County Hall,St Anne s Crescent,Lewes,,East Sussex,BN7 1SG,General enquiries,0345 60 80 190,,,,,01273 481 261,,"Monday to Thursday ? 8am to 5pm, Friday - 8am to 4.30pm"
Eastbourne Borough Council,http://www.eastbourne.gov.uk/,http://www.eastbourne.gov.uk/council/contact,21UC,Town Hall,Grove Road,Eastbourne,,,BN21 4UG,Customer contact centre,01323 410 000,,,,,01323 415 999,enquiries@eastbourne.gov.uk,
Eastleigh Borough Council,http://www.eastleigh.gov.uk/,http://www.eastleigh.gov.uk/contact-details/contact-us.aspx,24UD,Civic Offices,Leigh Road,Eastleigh,,Hampshire,SO50 9YN,,023 8068 8000,,,,,023 8064 3952,direct@eastleigh.gov.uk,
Eden District Council,http://www.eden.gov.uk,http://www.eden.gov.uk/find-or-contact-us/contact-details/,16UF,Town Hall,,Penrith,,Cumbria,CA11 7QF,Switchboard,01768 817 817,,,,,01768 890 470,customer.services@eden.gov.uk,
London Borough of Enfield,http://www.enfield.gov.uk/,http://www.enfield.gov.uk/contact_us,00AK,Civic Centre,Silver Street,Enfield,,,EN1 3XY,,020 8379 1000,,,,,020 8379 4453,,
Epping Forest District Council,http://www.eppingforestdc.gov.uk/,http://www.eppingforestdc.gov.uk/contact_us.asp,22UH,Civic Offices,High Street,Epping,,Essex,CM16 4BZ,Switchboard,01992 564 000,,,,,01992 578 018,contactus@eppingforestdc.gov.uk,
Epsom and Ewell Borough Council,http://www.epsom-ewell.gov.uk/,http://www.epsom-ewell.gov.uk/EEBC/EEBC Admin/Bwsforms/Contact Us.htm,43UC,Town Hall,The Parade,Epsom,,Surrey,KT18 5BY,,01372 732 000,Out of hours emergency,01372 732 555,,,,contactus@epsom-ewell.gov.uk,
Erewash Borough Council,http://www.erewash.gov.uk/,http://www.erewash.gov.uk/your-council/contact-us.html,17UG,Town Hall,Wharncliffe Road,Ilkeston,,Derbyshire,DE7 5RP,Contact centre,0115 907 2244,,,,,,enquiries@erewash.gov.uk,
Essex County Council,http://www.essex.gov.uk/Pages/Default.aspx,http://www.essex.gov.uk/Pages/Contact-us.aspx,22,County Hall,Market Road,Chelmsford,,Essex,CM1 1QH,General enquiries,0845 743 0430,,,,,,,
Exeter City Council,http://www.exeter.gov.uk/,http://www.exeter.gov.uk/index.aspx?articleid=1600,18UC,Civic Centre,Paris Street,Exeter,,Devon,EX1 1JN,,01392 277 888,,,,,01392 265 265,,
Fareham Borough Council,http://www.fareham.gov.uk/,http://www.fareham.gov.uk/general/contactus.aspx,24UE,Civic Offices,Civic Way,Fareham,,Hampshire,PO16 7AZ,Customer services,01329 236 100,Out of hours emergency,0800 374 485,,,01329 821 770,customerservices@fareham.gov.uk,
Fenland District Council,http://www.fenland.gov.uk/,http://www.fenland.gov.uk/article/1899/Contact-Us,12UD,Fenland Hall,County Road,March,,Cambridgeshire,PE15 8NQ,Contact centre,01354 654 321,,,,,,info@fenland.gov.uk,Monday - Friday 9am - 5pm  Saturday 9am - 12pm.
Forest Heath District Council,http://www.forest-heath.gov.uk/,http://www.forest-heath.gov.uk/ContactUs,42UC,District Offices,College Heath Road,Bury St Edmunds,,Suffolk,IP28 7EY,,01638 719 000,Out of hours emergency,01284 763 252,,,01638 716 493,info@forest-heath.gov.uk,
Forest of Dean District Council,http://www.fdean.gov.uk/,http://www.fdean.gov.uk/nqcontent.cfm?a_id=5281&tt=graphic,23UD,Council Offices,High Street,Coleford,,Gloucestershire,GL16 8HG,Switchboard,01594 810 000,Out of hours emergency,01594 812 500,,,,council@fdean.gov.uk,
Fylde Borough Council,http://www.fylde.gov.uk/,http://www.fylde.gov.uk/benefits-and-payments/customer-services/,30UF,Town Hall,St Annes Road West,St Annes,,Lancashire,FY8 1LW,Customer services,01253 658 658,Out of hours emergency,01253 642 111,,,01253 713 113,listening@fylde.gov.uk,
Gedling Borough Council,http://www.gedling.gov.uk/,http://www.gedling.gov.uk/ac-contactus.htm,37UE,Civic Centre,Arnot Hill Park,Nottingham,,Nottinghamshire,NG5 6LU,Switchboard,0115 901 3901,Out of hours emergency,0800 096 0306,,,01159 013 921,webenquiries@gedling.gov.uk,
Gloucester City Council,http://www.gloucester.gov.uk/,http://www.gloucester.gov.uk/LGNL/customerservices/morecontactinformation.aspx,23UE,Herbert Warehouse,The Docks,,Gloucester,Gloucestershire,GL1 2EQ,General enquiries,01452 396396,Out of hour emergencies,01452 396220,Text telephone,01452 396161,,heretohelp@gloucester.gov.uk,8:45 to 5.00pm - Monday to Friday
Gloucestershire County Council,http://www.gloucestershire.gov.uk/,http://www.gloucestershire.gov.uk/contact,23,Shire Hall,Westgate Street,,Gloucester,Gloucestershire,GL1 2TG,Switchboard,01452 425 000,,,,,,customerservices@gloucestershire.gov.uk,8.30am to 5pm
Gosport Borough Council,http://www.gosport.gov.uk/,http://www.gosport.gov.uk/contactus,24UF,Town Hall,High Street,Gosport,,Hampshire,PO12 1EB,Customer services,023 9258 4242,,,,,023 9254 5253,enquiries@gosport.gov.uk,
Gravesham Borough Council,http://www.gravesham.gov.uk/,http://www.gravesham.gov.uk/index.cfm?articleid=338,29UG,Civic Centre,Windmill Street,Gravesend,,Kent,DA12 1AU,Customer services,01474 337 000,Switchboard,01474 564 422,,,01474 337 680,info@gravesham.gov.uk,
Great Yarmouth Borough Council,http://www.great-yarmouth.gov.uk,http://www.great-yarmouth.gov.uk/contact/index.htm,33UD,Town Hall,Hall Plain,Great Yarmouth,,Norfolk,NR30 2QF,,01493 856 100,,,,,01493 846 332,enquiries@great-yarmouth.gov.uk,
Royal Borough of Greenwich,http://www.royalgreenwich.gov.uk/,http://www.royalgreenwich.gov.uk/contact,00AL,The Woolwich Centre,Wellington Street,Woolwich,London,,SE18 6HQ,Switchboard &#40 24 hours&#41,020 8854 8888,,,,,,contact-centre@greenwich.gov.uk,
Guildford Borough Council,http://www.guildford.gov.uk/,http://www.guildford.gov.uk/index.aspx?articleid=10,43UD,Millmead House,Millmead,Guildford,,Surrey,GU2 4BB,Switchboard,01483 505 050,,,,,01483 444 444,,
London Borough of Hackney,http://www.hackney.gov.uk/,http://www.hackney.gov.uk/contact-us.htm,00AM,Town Hall,Mare Street,London,,,E8 1EA,Hackney Contact Centre,020 8356 3000,,,,,020 8356 3104,info@hackney.gov.uk,"8am to 8pm Monday to Friday, 9am to 1pm Saturday, closed Sunday"
Halton Borough Council,http://www.halton.gov.uk/,http://www3.halton.gov.uk/enquiryform/,00ET,Municipal Building,Kingsway,Widnes,,Cheshire,WA8 7QF,Contact centre/out of hours emergency,0303 333 4300,,,,,01514 717 301,hdl-borough@halton.gov.uk,
London Borough of Hammersmith & Fulham,http://www.lbhf.gov.uk/,http://www.lbhf.gov.uk/Directory/Links/37851_Contact_us.asp,00AN,Town Hall,King Street,Hammersmith,,,W6 9JU,Switchboard,020 8748 3020,Information,020 8753 4040,,,,,
Hampshire County Council,http://www.hants.gov.uk/,http://www.hants.gov.uk/contactus/,24,The Castle,,Winchester,,Hampshire,SO23 8ZB,General enquiries,0845 603 5638,Switchboard,01962 841 841,Text phone for hearing and speech impaired,0845 603 5625,,info@hants.gov.uk,"Contact centre: 8am-8pm Mon-Fri, 9:30am-4pm Sat. Switchboard: 8:30am-5:15 Mon-Thu, 8:30am-4:45pm Fri. See website for emergency numbers."
Harborough District Council,http://www.harborough.gov.uk/,http://www.harborough.gov.uk/site/scripts/contact.php,31UD,Council Offices,Adam and Eve Street,Market Harborough,,Leicestershire,LE16 7AG,,01858 828 282,,,,,01858 821 000,customer.services@harborough.gov.uk,
London Borough of Haringey,http://www.haringey.gov.uk/,http://www.haringey.gov.uk/index/contact.htm,00AP,Civic Centre,High Road,London,,,N22 8LE,Switchboard,020 8489 0000,Out of hours emergency,020 8348 3148,,,,customer.services@haringey.gov.uk,
Harlow District Council,http://www.harlow.gov.uk/,http://www.harlow.gov.uk/,22UJ,Civic Centre,The Watergardens,Harlow,,Essex,CM20 1WG,,01279 446 655,,,,,01279 446 767,contact@harlow.gov.uk,
Harrogate Borough Council,http://www.harrogate.gov.uk/,http://www.harrogate.gov.uk/Pages/harrogate-1002.aspx,36UD,Council Offices,Crescent Gardens,Harrogate,,North Yorkshire,HG1 2SG,Customer services,0845 300 6091,Out of hours emergency,08457 089 190,,,01423 556 100,customerservices@harrogate.gov.uk,
London Borough of Harrow,http://www.harrow.gov.uk,http://www.harrow.gov.uk/site/scripts/contact.php,00AQ,Civic Centre,Station Road,Harrow,,Middlesex,HA1 2XF,,020 8863 5611,,,,,,info@harrow.gov.uk,
Hart District Council,http://www.hart.gov.uk,http://www.hart.gov.uk/index/customer_services/contact_us.htm,24UG,Civic Offices,Harlington Way,Fleet,,Hants,GU51 4AE,Main Switchboard Number,01252 622122,,,,,01252 626886,enquiries@hart.gov.uk,0830 - 16:30
Hartlepool Borough Council,http://www.hartlepool.gov.uk,http://www.hartlepool.gov.uk/site/scripts/contact.php,00EB,Civic Centre,Victoria Road,Hartlepool,,,TS24 8AY,,01429 266522,,,,,,customer.service@hartlepool.gov.uk,
Hastings Borough Council,http://www.hastings.gov.uk/,http://www.hastings.gov.uk/contact/default.aspx,21UD,Town Hall,Queens Road,Hastings,,East Sussex,TN34 1QR,Switchboard,0845 274 1066,Out of hours emergency,0845 274 1099,,,,hbc@hastings.gov.uk,
Havant Borough Council,http://www.havant.gov.uk/,http://www.havant.gov.uk/havant-148,24UH,Civic Centre,Civic Centre Road,Havant,,Hampshire,PO9 2AX,Switchboard,023 9247 4174,,,,,023 9248 0263,customer.services@havant.gov.uk,
London Borough of Havering,http://www.havering.gov.uk/,http://www.havering.gov.uk/Pages/Feedback.aspx,00AR,Town Hall,Main Road,Romford,,,RM1 3BB,Switchboard,01708 434 343,,,,,,info@havering.gov.uk,
Herefordshire Council,http://www.herefordshire.gov.uk/,http://www.herefordshire.gov.uk/council_gov_democracy/council/1836.asp,00GA,35 Hafod Road,,Brockington,,Herefordshire,HR1 1SH,Switchboard,01432 260 000,,,,,,info@herefordshire.gov.uk,
Hertfordshire County Council,http://www.hertsdirect.org/,http://www.hertsdirect.org/contact/,26,County Hall,Pegs Lane,Hertford,,,SG13 8DQ,Customer service centre/General enquiries,0300 123 4040,,,,0300 123 4041,,hertsdirect@hertscc.gov.uk,
Hertsmere Borough Council,http://www.hertsmere.gov.uk/,http://www.hertsmere.gov.uk/contactinghertsmere,26UE,Civic Offices,Elstree Way,Borehamwood,,Hertfordshire,WD6 1WA,General enquiries,020 8207 2277,,,,,,customer.services@hertsmere.gov.uk,
High Peak Borough Council,http://www.highpeak.gov.uk/,http://www.highpeak.gov.uk/hp/contact-us,17UH,Town Hall,,Buxton,,Derbyshire,SK17 6EL,Customer services,0845 129 7777,,,,,01298 27639,customer-services@highpeak.gov.uk,
London Borough of Hillingdon,http://www.hillingdon.gov.uk/,http://www.hillingdon.gov.uk/contactus,00AS,Civic Centre,High Street,Uxbridge,,Middlesex,UB8 1UW,Switchboard,01895 250 111,Out of hours emergency,01895 556 633,,,01895 273 636,contactcentre1@hillingdon.gov.uk,
Hinckley & Bosworth Borough Council,http://www.hinckley-bosworth.gov.uk/,http://www.hinckley-bosworth.gov.uk/contact/,31UE,Council Offices,Argents Mead,Hinckley,,Leicestershire,LE10 1BZ,Customer services,01455 238 141,,,,,01455 251 172,customer.services@hinckley-bosworth.gov.uk,
Horsham District Council,http://www.horsham.gov.uk/,http://www.horsham.gov.uk/contact_us/contact.asp,45UF,Park North,North Street,Horsham,,West Sussex,RH12 1RL,01403 215100,01403 215 100,,,,,01403 262 985,contact@horsham.gov.uk,
London Borough of Hounslow,http://www.hounslow.gov.uk/,http://www.hounslow.gov.uk/index/contact_us.htm,00AT,Civic Centre,Lampton Road,Hounslow,,Middlesex,TW3 4DN,Customer services,020 8583 2000,Out of hours emergency,020 8583 2222,,,,information@hounslow.gov.uk,
Huntingdonshire District Council,http://www.huntingdonshire.gov.uk,http://www.huntingdonshire.gov.uk/Pages/Home.aspx,12UE,Pathfinder House,St Marys Street,Huntingdon,,Cambridgeshire,PE29 3TN,Main reception,01480 388 388,Out of hours emergency,01480 434 167,,,01480 388 09,mail@huntsdc.gov.uk,
Hyndburn Borough Council,http://www.hyndburnbc.gov.uk,http://www.hyndburnbc.gov.uk,30UG,Scaitcliffe House,Ormerod Street,Accrington,,Lancashire,BB5 0PF,,01254 388 111,,,,,01254 392 597,enquiries@hyndburrnbc.gov.uk,
Ipswich Borough Council,http://www.ipswich.gov.uk/,http://www.ipswich.gov.uk/contact,42UD,Grafton House,15-17 Russell Road,Ipswich,,Suffolk,IP1 2DE,General enquiries,01473 432 000,Out of hours emergency,01473 433 444,,,,enquiry@ipswich.gov.uk,
Isle of Wight Council,http://www.iwight.com,http://www.iwight.com/council/contact/contact.asp,00MW,County Hall,High Street,Newport,,Isle of Wight,PO30 1UD,Customer services,01983 821 000,,,,,01983 823 333,customer.services@iow.gov.uk,
Isles of Scilly,http://www.scilly.gov.uk,http://www.scilly.gov.uk/council/contacts.htm,15UH,Town Hall,,St Marys,,Isles of Scilly,TR21 0LW,,01720 424000,,,,,01720 424017,enquiries@scilly.gov.uk,
London Borough of Islington,http://www.islington.gov.uk/Pages/default.aspx,http://www.islington.gov.uk/about/contact-complaints/Pages/default.aspx,00AU,222 Upper Street,,London,,,N1 1XR,Contact centre,020 7527 2000,,,,,020 7527 5001,contact@islington.gov.uk,
Royal Borough of Kensington and Chelsea,http://www.rbkc.gov.uk/,http://www.rbkc.gov.uk/contacts/general/default.asp,00AW,The Town Hall,Hornton Street,London,,,W8 7NX,,020 7361 3000,,,,,020 7938 1445,information@rbkc.gov.uk,
Kent County Council,http://www.kent.gov.uk/,http://www.kent.gov.uk/your_council/contact_us.aspx,29,County Hall,,Maidstone,,Kent,ME14 1XQ,Customer services/out of hours emergency,0845 824 7247,,,,,,county.hall@kent.gov.uk,
Kettering Borough Council,http://www.kettering.gov.uk/,http://www.kettering.gov.uk/site/scripts/contact.php,34UE,Municipal Offices,Bowling Green Road,Kettering,,Northants,NN15 7QX,Customer services,01536 410 333,,,,,01536 410 795,customerservices@kettering.gov.uk,
King's Lynn and West Norfolk Borough Council,http://www.west-norfolk.gov.uk,http://www.west-norfolk.gov.uk/Default.aspx?page=16823,33UE,King's Court,Chapel Street,King's Lynn,,Norfolk,PE30 1EX,Council information centre,01553 616 200,,,,,01553 691 663,contact@west-norfolk.gov.uk,
Kingston-upon-Hull City Council,http://www.hullcc.gov.uk/,http://www.hullcc.gov.uk/pls/portal/url/page/home/contact us,00FA,The Guildhall,Alfred Gelder Street,Hull,,,HU1 2AA,Customer services,01482 300 300,,,,,,info@hullcc.gov.uk,
Kirklees Metropolitan Borough Council,http://www.kirklees.gov.uk/,http://www.kirklees.gov.uk/,00CZ,Civic Centre 3,Market Street,Huddersfield,,,HD1 1WG,Switchboard,01484 221 000,,,,,,customer.enquiries@kirklees.gov.uk,
Knowsley Metropolitan Borough Council,http://www.knowsley.gov.uk/,http://www.knowsley.gov.uk/site-pages/contact-us.aspx,00BX,Municipal Buildings,Cherryfield Drive,Knowsley,,,L32 1TX,General enquiries,0151 489 6000,,,,,,customerservices@knowsley.gov.uk,
London Borough of Lambeth,http://www.lambeth.gov.uk/,http://www.lambeth.gov.uk/ContactUs/,00AY,Town Hall,Brixton Hill,London,,,SW2 1RW,General enquiries,020 7926 1000,,,,,,infoservice@lambeth.gov.uk,
Lancashire County Council,http://www.lancashire.gov.uk/,http://www.lancashire.gov.uk/corporate/contact_us/index.asp,30,County Hall,Fishergate,,Preston,Lancashire,PR1 0LD,General enquires,0845 053 0000,Out of hours emergency,0845 053 0000,,,0845 053 0000,enquiries@lancashire.gov.uk,
Lancaster City Council,http://www.lancaster.gov.uk/,http://www.lancaster.gov.uk/contact/,30UH,Town Hall,Dalton Square,,Lancaster,Lancashire,LA1 1PJ,,01524 582000,,,,,,info@lancaster.gov.uk,
Leeds City Council,http://www.leeds.gov.uk/,http://www.leeds.gov.uk/pages/contactus.aspx,00DA,Civic Hall,Calverly Street,Leeds,,,LS1 1UR,Switchboard,01132 348 080,,,,,,general.enquiries@leeds.gov.uk,
Leicester City Council,http://www.leicester.gov.uk/,http://www.leicester.gov.uk/contact-us,00FN,New Walk Centre,Welford Place,Leicester,,,LE1 6ZG,Customer services,0116 252 7000,,,,,0116 255 9289,customer.services@leicester.gov.uk,
Leicestershire County Council,http://www.leics.gov.uk/,http://www.leics.gov.uk/contact_us.htm,31,County Hall,Glenfield,Leicester,,,LE3 8RA,,01162 323 232,,,,,,information@leics.gov.uk,
Lewes District Council,http://www.lewes.gov.uk/,http://www.lewes.gov.uk/council/525.asp,21UF,32 High Street,,Lewes,,East Sussex,BN7 2LX,Switchboard,01273 471 600,Customer services helpdesk,01273 484 999,,,01273 484 146,lewesdc@lewes.gov.uk,
London Borough of Lewisham,http://www.lewisham.gov.uk/,http://www.lewisham.gov.uk/ContactUs/,00AZ,Town Hall,Catford,London,,,SE6 4RU,Switchboard (24 hours),020 8314 6000,,,,,,,
Lichfield District Council,http://www.lichfielddc.gov.uk/,http://www.lichfielddc.gov.uk/site/scripts/contact.php,41UD,District Council House,Frog Lane,Lichfield,,Staffordshire,WS13 6YY,,01543 308 000,,,,,,enquiries@lichfielddc.gov.uk,
City of Lincoln Council,http://www.lincoln.gov.uk/,https://www.lincoln.gov.uk/categorySearch.asp?sec_id=3881,32UD,City Hall,Beaumont Fee,Lincoln,,Lincolnshire,LN1 1DD,General enquiries,01522 881 188,,,,,,customer.services@lincoln.gov.uk,Monday to Friday 9.00 am to 4.30 pm
Lincolnshire County Council,http://www.lincolnshire.gov.uk/,http://www.lincolnshire.gov.uk/contact-the-council,32,Lincolnshire County Council,"County Offices, Newland",Lincoln,,Lincolnshire,LN1 1YL,,01522 552 222,,,,,01522 516 137,customer_services@lincolnshire.gov.uk,
Liverpool City Council,http://www.liverpool.gov.uk/,http://www.liverpool.gov.uk/Contact/index.asp,00BY,Municipal Buildings,Dale Street,Liverpool,,,L2 2DH,General enquiries (24 hours),0151 233 3000,,,,,,liverpool.direct@liverpool.gov.uk,
Luton Borough Council,http://www.luton.gov.uk/,http://www.luton.gov.uk/pages/contactus.aspx,00KA,Town Hall,George Street,Luton,,Bedfordshire,LU1 2BQ,Switchboard,01582 546 000,,,,,,feedback@luton.gov.uk,
Maidstone Borough Council,http://www.maidstone.gov.uk,http://www.maidstone.gov.uk/contactus,29UH,Maidstone House,King Street,Maidstone,,Kent,ME16 6JQ,Customer Services,01622 602 000,,,,,,customerservices@maidstone.gov.uk,http://www.maidstone.gov.uk/pages/do_it_online/contact_us/where_to_find_us.aspx?
Maldon District Council,http://www.maldon.gov.uk/,http://www.maldon.gov.uk/contact,22UK,Princes Road,,Maldon,,Essex,CM9 5DL,,01621 854 477,,,,,01621 852 575,contact@maldon.gov.uk,
Malvern Hills District Council,http://www.malvernhills.gov.uk/cms/default.aspx,http://www.malvernhills.gov.uk/cms/council-and-democracy/get-in-touch.aspx,47UC,Council House,Avenue Road,Malvern,,Worcestershire,WR14 3AF,,01684 862 151,Out of hours emergency,0845 056 8035,,,01684 574 906,worcestershirehub@malvernhills.gov.uk,
Manchester City Council,http://www.manchester.gov.uk/,http://www.manchester.gov.uk/contactus,00BN,Town Hall,Albert Square,Manchester,,,M60 2LA,Switchboard,0161 234 5000,,,,,,,
Mansfield District Council,http://www.mansfield.gov.uk/,http://www.mansfield.gov.uk/index.aspx?articleid=127,37UF,Civic Centre,Chesterfield Road South,Mansfield,,Notts,NG19 7BH,,01623 463 463,,,,,01623 463 900,mdc@mansfield.gov.uk,
Medway Council,http://www.medway.gov.uk/,http://www.medway.gov.uk/information/toolbar/contactus.aspx,00LC,Gun Wharf,Dock Road,Chatham,,Kent,ME4 4TR,Switchboard,01634 306 000,Customer services,01634 333 333,,,01634 332 756,customer.first@medway.gov.uk,
Melton Borough Council,http://www.melton.gov.uk/,http://www.melton.gov.uk/,31UG,Council Offices,Nottingham Road,Melton Mowbray,,Leicestershire,LE13 0UL,,01664 502 502,,,,,,contactus@melton.gov.uk,
Mendip District Council,http://www.mendip.gov.uk/,http://www.mendip.gov.uk/ContactUs.asp,40UB,Council Offices,Cannards Grave Road,Shepton Mallet,,Somerset,BA4 5BT,Customer services,01749 648 999,Council Tax and Benefits,0845 300 3352,,,01749 344 050,customerservices@mendip.gov.uk,0830 to 1700
London Borough of Merton,http://www.merton.gov.uk/,http://www.merton.gov.uk/contact.htm,00BA,Merton Civic Centre,London Road,Morden,,,SM4 5DX,,020 8274 4901,Out of hours emergency,020 8543 9750,,,,JustAsk@merton.gov.uk,
Mid Devon District Council,http://www.middevon.gov.uk/,http://www.middevon.gov.uk/index.aspx?articleid 658,18UD,Phoenix House,Phoenix Lane,Tiverton,,,EX16 6PP,,01884 255 255,,,,,01884 234 318,customerfirst@middevon.gov.uk,
Mid Suffolk District Council,http://www.midsuffolk.gov.uk/,http://www.midsuffolk.gov.uk/utility/contact-us/,42UE,Council Offices,131 High Street,Needham Market,IPSWICH,Suffolk,IP6 8DL,,0845 606 6067,,01449 724500,,07827 842833,01449 724627,customerservice@csduk.com,"Monday to Friday, 8.30am - 5pm"
Mid Sussex District Council,http://www.midsussex.gov.uk/,http://www.midsussex.gov.uk/page.cfm?pageID=1686,45UG,Oaklands,Oaklands Road,Haywards Heath,,West Sussex,RH16 1SS,Main Switchboard,01444 458 166,Out of hours emergency,01444 446 495,,,01444 450 027,enquiries@midsussex.gov.uk,Mon-Thurs 08:45-17:15 and Fri 08:45-16:15
Milton Keynes,http://www.milton-keynes.gov.uk/,http://www.miltonkeynes.gov.uk/mkcouncil/DisplayArticle.asp?ID=14725,00MG,Civic Offices,1 Saxon Gate East,Milton Keynes,,,MK9 3HQ,Reception,01908 691 691,Out of hours emergency,01908 226 699,,,,info@milton-keynes.gov.uk,
Mole Valley District Council,http://www.molevalley.gov.uk/,http://www.molevalley.gov.uk/contactus,43UE,Pippbrook,,Dorking,,Surrey,RH4 1SJ,Main reception,01306 885 001,,,,,01306 876 821,info@molevalley.gov.uk,
New Forest District Council,http://www.newforestdc.gov.uk/,http://www.newforestdc.gov.uk/index.cfm?articleid=4512,24UJ,Appletree Court,,Lyndhurst,,Hampshire,SO43 7PA,Switchboard,023 8028 5000,,,,,023 8028 5555,contact@nfdc.gov.uk,
Newark & Sherwood District Council,http://www.newark-sherwooddc.gov.uk/,http://www.newark-sherwooddc.gov.uk/contactus,37UG,Kelham Hall,Kelham,Newark,,Nottinghamshire,NG23 5QX,Switchboard,01636 650 000,,,,,01636 655 229,customerservices@nsdc.info,
Newcastle-upon-Tyne City Council,http://www.newcastle.gov.uk/,http://www.newcastle.gov.uk/your-council/communications-and-marketing/contact-us,00CJ,Civic Centre,Barras Bridge,Newcastle upon Tyne,,Tyne and Wear,NE99 2BN,,0191 232 8520,,,,,01912 114 908,csc@newcastle.gov.uk,
London Borough of Newham,http://www.newham.gov.uk/,http://www.newham.gov.uk/contactus,00BB,,,,,,,,020 8430 2000,Out of hours emergency,020 8472 9624,,,020 8430 1066,customer.services@newham.gov.uk,
Norfolk County Council,http://www.norfolk.gov.uk/,http://www.norfolk.gov.uk/,33,County Hall,Martineau Lane,Norwich,,Norfolk,NR1 2DH,,0344 800 8020,,,,,,information@norfolk.gov.uk,Mon - Fri 9am-5pm
North Devon Council,http://www.northdevon.gov.uk/,http://www.northdevon.gov.uk/index/lgcl_council_government_and_democracy/lgcl_councils/contact_us.htm,18UE,Civic Centre,North Walk,Barnstaple,,Devon,EX31 1EA,Switchboard,01271 327711,Out of hours emergency,01271 388240,,,01271 388 451,customerservices@northdevon.gov.uk,Monday to Friday 9.00 am to 5.00 pm
North Dorset District Council,http://www.north-dorset.gov.uk/,http://www.dorsetforyou.com/northdorset,19UE,Nordon,Salisbury Road,Blandford Forum,,Dorset,DT11 7LL,,01258 454 111,,,,,01258 480 179,customerservices@north-dorset.gov.uk,
North East Derbyshire District Council,http://www.ne-derbyshire.gov.uk/,http://www.ne-derbyshire.gov.uk/your-council/council-contacts,17UJ,Council House,Saltergate,Chesterfield,,Derbyshire,S40 1LF,,01246 231 111,,,,,,connecne@ne-derbyshire.gov.uk,
North East Lincolnshire Council,http://www.nelincs.gov.uk/,http://www.nelincs.gov.uk/contact-us,00FC,Municipal Offices,Town Hall Square,Grimsby,,North Lincolnshire,DN31 1HU,Switchboard,01472 313 131,,,,,,customerrequests@nelincs.gov.uk,
North Hertfordshire District Council,http://www.north-herts.gov.uk/,http://www.north-herts.gov.uk/,26UF,Council Offices,Gernon Road,Letchworth Garden City,,Hertfordshire,SG6 3JF,,01462 474000,,,,,01462 474227,service@north-herts.gov.uk,
North Kesteven District Council,http://www.n-kesteven.gov.uk/,http://www.n-kesteven.gov.uk/contact-the-council,32UE,District Council Offices,Kesteven Street,Sleaford,,Lincolnshire,NG34 7EF,Customer services,01529 414 155/01522 699 699,Out of hours emergency,01529 308 308,,,01529 413 956,customer_services@n-kesteven.gov.uk,
North Lincolnshire Council,http://www.northlincs.gov.uk/,http://www.northlincs.gov.uk/contact-us/,00FD,Civic Centre,Ashby Road,Scunthorpe,,North Lincolnshire,DN16 1AB,,01724 296 296,Out of hours emergency,01724 276 444,,,,customerservice@northlincs.gov.uk,
North Norfolk District Council,http://www.northnorfolk.org/,http://www.northnorfolk.org/contact/,33UF,Council Offices,Holt Road,Cromer,,Norfolk,NR27 9EN,Switchboard,01263 513 811,Out of hours emergency,01223 257 482,,,01263 515 042,,
North Somerset District Council,http://www.n-somerset.gov.uk/,http://www.n-somerset.gov.uk/Your Council/Communication and information/Contact Us,00HC,Town Hall,Walliscote Grove Road,Weston-super-Mare,,Somerset,BS23 1UJ,Switchboard,01934 888 888,Out of hours emergency,01934 622 669,,,,customer.services@n-somerset.gov.uk,
North Tyneside Metropolitan Borough Council,http://www.northtyneside.gov.uk,http://www.northtyneside.gov.uk/browse.shtml?p_subjectCategory 757,00CK,Quadrant,The Silverlink North,Cobalt Business Park,North Tyneside,Tyne and Wear,NE27 0BY,Customer contact centre,0345 200 0101,,,,,,contact.us@northtyneside.gov.uk,
North Warwickshire Borough Council,http://www.northwarks.gov.uk/,http://www.northwarks.gov.uk/contact,44UB,South Street,,Atherstone,,Warwickshire,CV9 1DE,Customer centre,01827 715 341,Out of hours emergency,01827 718 086,,,01827 719 225,customerservices@northwarks.gov.uk,
North West Leicestershire District Council,http://www.nwleics.gov.uk/,http://www.nwleicestershire.gov.uk/contact_us/,31UH,Council Offices,,Coalville,,Leicestershire,LE67 3FJ,Main switchboard,01530 454 545,,,,,01530 454 506,customer.services@nwleicestershire.gov.uk,
North Yorkshire County Council,http://www.northyorks.gov.uk/,http://www.northyorks.gov.uk/contactus,36,County Hall,,Northallerton,,North Yorkshire,DL7 8AD,Customer services centre,0845 8 72 73 74,,,,,01609 532009,customer.services@northyorks.gov.uk,Mon to Fri: 8am - 5.30pm. Sat: 9am - 5pm &#40 Social care only&#41 . Sun: Closed
Northampton Borough Council,http://www.northampton.gov.uk/,http://www.northampton.gov.uk/site/scripts/contact.php,34UF,The Guildhall,St Giles Square,Northampton,,Northamptonshire,NN1 1DE,,0300 330 7000,,,,,,enquiries@northampton.gov.uk,
Northamptonshire County Council,http://www.northamptonshire.gov.uk/,http://www.northamptonshire.gov.uk/,34,County Hall,,Northampton,,Northants,NN1 1DN,,01604 236 236,,,,,,customerservices@northamptonshire.gov.uk,
Northumberland Council (Unitary),http://www.northumberland.gov.uk/,http://www.northumberland.gov.uk/,00EM,County Hall,,Morpeth,,Northumberland,NE61 2EF,,01670 533000,,,,,01670 534 117,contactcentre@northumberland.gov.uk,
Norwich City Council,http://www.norwich.gov.uk/,http://www.norwich.gov.uk/forms/pages/contactus.aspx,33UG,City Hall,,Norwich,,Norfolk,NR2 1NH,,"0844 980 3333, 8am to 5pm",,,,,01603 213 000,info@norwich.gov.uk,"Monday, Tuesday, Thursday and Friday, 8.45am to 5pm, Wednesday 1pm to 5pm"
Nottingham City Council,http://www.nottinghamcity.gov.uk/,http://www.nottingham.gov.uk/index.aspx?articleid=196,00FY,The Guildhall,South Sherwood Street,Nottingham,,Nottinghamshire,NG1 4BT,,01159 155 555,,,,,,customer.services@nottinghamcity.gov.uk,
Nottinghamshire County Council,http://www.nottinghamshire.gov.uk/,http://www.nottinghamshire.gov.uk/thecouncil/contact/,37,County Hall,Loughborough Road,West Bridgford,Nottingham,Nottinghamshire,NG2 7QP,,08449 808080,,,,,01159 455 113,enquiries@nottscc.gov.uk,
Nuneaton & Bedworth Borough Council,http://www.nuneatonandbedworth.gov.uk/,http://www.nuneatonandbedworth.gov.uk/about/contact-us,44UC,Town Hall,Coton Road,Nuneaton,,Warwickshire,CV11 5AA,Switchboard,024 7637 6376,Out of hours emergency,024 7638 2153,,,,customer.services@nuneatonandbedworth.gov.uk,Monday - Friday 09:00 - 17:00
Oadby & Wigston District Council,http://oadby-wigston.gov.uk/Home/Home.aspx,http://www.oadby-wigston.gov.uk/pages/customer_services,31UJ,Council Offices,Station Road,Wigston,,Leicestershire,LE18 2DR,,0116 288 8961,Out of hours emergency,0800 083 9695,,,0116 288 7828,,
Oldham Metropolitan Borough Council,http://www.oldham.gov.uk/,http://www.oldham.gov.uk/contact_us.htm,00BP,Civic Centre,West Street,Oldham,,Lancashire,OL1 1UG,General enquiries,0161 770 3000,,,,,,,
Oxford City Council,http://www.oxford.gov.uk/,http://www.oxford.gov.uk/PageRender/decVanilla/Contactus.htm,38UC,PO Box 10,,Oxford,,Oxfordshire,OX1 1EN,General enquiries,01865 249 811,,,,,,customerservices@oxford.gov.uk,
Oxfordshire County Council,http://www.oxfordshire.gov.uk/,http://www.oxfordshire.gov.uk/contactus,38,County Hall,New Road,Oxford,,Oxfordshire,OX1 1ND,Main switchboard,01865 792 422,,,,,01865 726 155,online@oxfordshire.gov.uk,
Pendle Borough Council,http://www.pendle.gov.uk/,http://www.pendle.gov.uk/site/scripts/contact.php,30UJ,Market Street,,Nelson,,Lancashire,BB9 7LG,,01282 661 661,Out of hours emergency,01282 661 999,,,01282 661 130,customer.services@pendle.gov.uk,
Peterborough City Council,http://www.peterborough.gov.uk/,http://www.peterborough.gov.uk/contact_us.aspx,00JA,Town Hall,Bridge Street,Peterborough,,,PE1 1PJ,,01733 747 474,,,,,01733 345 090,ask@peterborough.gov.uk,
Plymouth City Council,http://www.plymouth.gov.uk/,http://www.plymouth.gov.uk/contactus.htm,00HG,Civic Centre,,Plymouth,,,PL1 2AA,,01752 668 000,,,,,01752 304 880,enquiries@plymouth.gov.uk,
Portsmouth City Council,http://www.portsmouth.gov.uk/,http://www.portsmouth.gov.uk/yourcouncil/contact-us.html,00MR,Civic Offices,Guildhall Square,Hants,,,PO1 2BG,,023 9282 2251,Helpdesk,023 9283 4092,,,,general@portsmouthcc.gov.uk,
Preston City Council,http://www.preston.gov.uk/,http://www.preston.gov.uk/thecouncil/countact-us-and-complaints/,30UK,Town Hall,Lancaster Road,,Preston,Lancashire,PR1 2RL,Contact centre,01772 906 900,Out of hours emergency,01772 906 916,,,01772 906 195,info@preston.gov.uk,
Purbeck District Council,http://www.purbeck-dc.gov.uk/,http://www.dorsetforyou.com/purbeck,19UG,Westport House,Worgret Road,Wareham,,Dorset,BH20 4PP,,01929 556 561,Out of hours emergency (Careline),01929 558 455,,,01929 552 688,,
Reading Borough Council,http://www.reading.gov.uk/,https://secureforms.reading.gov.uk/forms/contactus.asp,00MC,Civic Centre,,Reading,,,RG1 7AE,,0118 937 3737,,,SMS Text,81722,01189 589 770,,
London Borough of Redbridge,http://www.redbridge.gov.uk/,http://www.redbridge.gov.uk/cms/the_council/about_the_council/contacting_us.aspx,00BC,PO Box No.2,Town Hall,Ilford,,Essex,IG1 1DD,,020 8554 5000,,,,,,customer.cc@redbridge.gov.uk,"Monday to Friday 8.00am to 8.00pm, Saturday 9.00am to 1.00pm"
Redcar and Cleveland Council,http://www.redcar-cleveland.gov.uk/,http://www.redcar-cleveland.gov.uk/Enquiries,00EE,Town Hall,Fabian Road,Redcar,,Yorkshire,TS6 9AR,Main switchboard,01642 774 774,,,,,,contactus@redcar-cleveland.gov.uk,
Redditch Borough Council,http://www.redditchbc.gov.uk/,http://redditch.whub.org.uk/cms/link-pages/contact-us.aspx,47UD,Town Hall,Walter Stranz Square,Redditch,,Worcestershire,B98 8AH,Switchboard,0152 764 252,Out of hours emergency,0152 767 666,,,0152 765 216,worcshubredditch@redditchbc.gov.uk,
Reigate and Banstead Borough Council,http://www.reigate-banstead.gov.uk/,http://www.reigate-banstead.gov.uk/council_and_democracy/about_the_council/organisation_and_services/contact/index.asp,43UF,Reigate Town Hall,Castlefield Road,Reigate,,Surrey,RH2 OSH,,01737 276 000,,,,,,customer.services@reigate-banstead.gov.uk,
Ribble Valley Borough Council,http://www.ribblevalley.gov.uk/,http://www.ribblevalley.gov.uk/contact,30UL,Council Offices,Church Walk,Clitheroe,,Lancashire,BB7 2RA,,01200 425 111,Out of hours emergency,01200 444 448,,,01200 414 488,webmaster@ribblevalley.gov.uk,
London Borough of Richmond upon Thames,http://www.richmond.gov.uk/,http://www.richmond.gov.uk/council_contact_numbers.htm,00BD,Civic Centre,44 York Street,Twickenham,,Middlesex,TW1 3BZ,Main switchboard,08456 122 660,Out of hours emergency,020 8744 2442,,,,customer.services@richmond.gov.uk,
Richmondshire District Council,http://richmondshire.gov.uk,http://www.richmondshire.gov.uk/Default.aspx?page=16823,36UE,Swale House,Frenchgate,Richmond,,North Yorkshire,DL10 4JE,,01748 829 100,,,,,01748 825 071,enquiries@richmondshire.gov.uk,
Rochdale Metropolitan Borough Council,http://www.rochdale.gov.uk/,http://www.rochdale.gov.uk/contact_us.aspx,00BQ,PO Box 39,Municipal Offices,Rochdale,,Lancashire,OL16 1XU,Switchboard,01706 647 474,,,,,,council@rochdale.gov.uk,
Rochford District Council,http://www.rochford.gov.uk/,http://www.rochford.gov.uk/Contact-the-Council,22UL,Council Offices,South Street,Rochford,,Essex,SS4 1BW,Switchboard,01702 546 366,Out of hours emergency,01268 527 317,,,01702 545 737,customerservices@rochford.gov.uk,"Monday to Thursday 8.30 am to 5.30 pm, Friday 8.30 am to 5.00 pm &#40 visits&#41"
Rossendale Borough Council,http://www.rossendale.gov.uk/,http://www.rossendale.gov.uk/site/scripts/contact.php,30UM,Town Centre Offices,Lord Street,Rossendale,,Lancashire,BB4 7LZ,,01706 217 777,,,,,,generalenquiries@rossendalebc.gov.uk,
Rother District Council,http://www.rother.gov.uk/,http://www.rother.gov.uk/index.cfm?articleid 125,21UG,Town Hall,,Bexhill-on-Sea,,East Sussex,TN39 3JX,,01424 787000,Out of hours emergency,01424 787868,,,01424 787879,,
Rotherham Metropolitan Borough Council,http://www.rotherham.gov.uk/,http://www.rotherham.gov.uk/?tab=contact,00CF,Civic Building,Walker Place,Rotherham,,South Yorkshire,S65 1UF,Switchboard,01709 382 121,,,,,,,
Rugby Borough Council,http://www.rugby.gov.uk/,http://www.rugby.gov.uk/site/scripts/contact.php,44UD,Town Hall,Evreux Way,Rugby,,Warwickshire,CV21 2RR,,01788 533 533,,,,,01788 533 409,contactcentre@rugby.gov.uk,
Runnymede Borough Council,http://www.runnymede.gov.uk/,http://www.runnymede.gov.uk/portal/site/runnymede/menuitem.2a5f2d13db4d4f58c4a81c10af8ca028/,43UG,Runnymede Civic Centre,Station Road,Addlestone,,Surrey,KT15 2AH,,01932 838 383,,,,,01932 838 384,enquiries@runnymede.gov.uk,"Monday to Thursday 8.30am - 5.00pm, Tuesday (Reception only) 5.00pm - 7.00pm, Friday 8.30am - 4.30pm, Saturday (Reception only) - 9.00am - 5.00pm"
Rushcliffe Borough Council,http://www.rushcliffe.gov.uk/,http://www.rushcliffe.gov.uk/customerservices/,37UJ,Civic Centre,Pavilion Road,West Bridgford,,Nottinghamshire,NG2 5FE,Customer services,01159 819 911,,,,,01159 455 882,customerservices@rushcliffe.gov.uk,
Rushmoor Borough Council,http://www.rushmoor.gov.uk/,http://www.rushmoor.gov.uk/article/1429/Contact-us,24UL,Council Offices,Farnborough Road,Farnborough,,Hampshire,GU14 7JU,,01252 398 399,Out of hours emergency,01252 398 183,,,01252 524 017,customerservices@rushmoor.gov.uk,
Rutland County Council,http://www.rutland.gov.uk/,http://www.rutland.gov.uk/contact_us.aspx,00FP,Catmose,Oakham,Rutland,,,LE15 6HP,,01572 722 577,,,,,01572 758 307,enquiries@rutland.gov.uk,
Ryedale District Council,http://www.ryedale.gov.uk,http://www.ryedale.gov.uk/default.aspx?page=9679,36UF,Ryedale House,Old Malton Road,Malton,,North Yorkshire,YO17 7HH,Switchboard,01653 600 666,Out of hours emergency,01653 697 737,,,01653 696 801,info@ryedale.gov.uk,
Salford City Council,http://www.salford.gov.uk,http://www.salford.gov.uk/contacts.htm,00BR,Civic Centre,Chorley Road,Swinton,Salford,Lancashire,M27 5DA,Main switchboard,0161 794 4711,Out of hours emergency,0161 794 8888,,,,customercontact.centre@salford.gov.uk,
Sandwell Metropolitan Borough Council,http://www.sandwell.gov.uk/,http://www.laws.sandwell.gov.uk/ccm/navigation/contact-the-council/,00CS,Sandwell Council House,PO Box 2374,Oldbury,,West Midlands,B69 3DE,Switchboard,0845 358 2200,,,,,01215 693 722,contact@sandwell.gov.uk,
Scarborough Borough Council,http://www.scarborough.gov.uk/,http://www.scarborough.gov.uk/Default.aspx?page=6868,36UG,Town Hall,St Nicholas Street,Scarborough,,North Yorkshire,YO11 2HG,,01723 232 323,,,,,01723 506 600,customer.first@scarborough.gov.uk,
Sedgemoor District Council,http://www.sedgemoor.gov.uk/,http://www.sedgemoor.gov.uk/index.aspx?articleid 5553,40UC,Bridgwater House,King Square,Bridgwater,,Somerset,TA6 3AR,General enquiries,0845 408 2540,,,,,,customer.services@sedgemoor.gov.uk,
Sefton Metropolitan Borough Council,http://www.sefton.gov.uk/,http://www.sefton.gov.uk/default.aspx?page=4742,00CA,324-342 Stanley Road,,Bootle,,Merseyside,L20 6ET,Contact centre,0845 140 0845,,,,,,contact@sefton.gov.uk,
Selby District Council,http://www.selby.gov.uk/,http://www.selby.gov.uk/contact.asp?menuid=2&pageid=293,36UH,Civic Centre,Portholme Road,Selby,,North Yorkshire,Y08 4SB,,01757 705 101,,,,,01757 292 176,info@selby.gov.uk,
Sevenoaks District Council,http://www.sevenoaks.gov.uk/,http://www.sevenoaks.gov.uk/76.asp,29UK,Council Offices,Argyle Road,Sevenoaks,,Kent,TN13 1HG,,01732 227 000,,,,,,information@sevenoaks.gov.uk,"Monday to Thursday 8.45 am to 5.00 pm, Friday 8.45 am to 4.45 pm"
Sheffield City Council,http://www.sheffield.gov.uk/,http://www.sheffield.gov.uk/contactus,00CG,Town Hall,Pinstone Street,,Sheffield,South Yorkshire,S1 2HH,General enquiries,0114 27 34567,,,,,,firstpoint@sheffield.gov.uk,
Shepway District Council,http://www.shepway.gov.uk/,http://www.shepway.gov.uk/contact,29UL,Civic Centre,Castle Hill Avenue,Folkestone,,Kent,CT20 2QY,General enquires,01303 853 000,Out of hours emergency,01303 221 888,,,01303 245 978,shepway@shepway.gov.uk,
Shropshire Council (Unitary),http://www.shropshire.gov.uk/,http://www.shropshire.gov.uk/customerservice.nsf#contact,00GG,Shropshire Council,Chief Executives Office,"Shirehall, Abbey Foregate",Shrewsbury,Shropshire,SY2 6ND,General enquiries,0345 678 9000,Out of hours emergency,0845 678 9040,,,01743 252 827,customer.service@shropshire.gov.uk,
Slough Borough Council,http://www.slough.gov.uk/,http://www.slough.gov.uk/contact-us/,00MD,Landmark Place,High Street,Slough,,Berkshire,SL1 1JL,,01753 475 111,,,,,,enquiries@slough.gov.uk,
Solihull Metropolitan Borough Council,http://www.solihull.gov.uk/,http://www.solihull.gov.uk/about/contactus.htm,00CT,PO Box 18,Council House,Solihull,,West Midlands,B91 3QS,Customer services,0121 704 6000,,,,,0121 704 6114,customer@solihull.gov.uk,
Somerset County Council,http://www.somerset.gov.uk/,http://www.somerset.gov.uk/irj/public/contactus,40,County Hall,,Taunton,,Somerset,TA1 4DY,General enquiries,0845 345 9166,,,,,,somersetdirect@somerset.gov.uk,
South Buckinghamshire District Council,http://www.southbucks.gov.uk/,http://www.southbucks.gov.uk/19.asp,11UE,Capswood,Oxford Road,Denham,,Buckinghamshire,UB9 4LH,Customer services,01895 837 200,,,,,,sbdc@southbucks.gov.uk,
South Cambridgeshire District Council,http://www.scambs.gov.uk/,http://www.scambs.gov.uk/CouncilAndDemocracy/Consultation/default.htm,12UG,South Cambridgeshire Hall,Cambourne Business Park,Cambourne,,Cambridgeshire,CB23 6EA,General Enquiries,03450 450 500,Minicom,01480 376743,,,01954 713 149,scdc@scambs.gov.uk,Contact Centre: Mon - Fri: 8.00am - 8.00pm  Sat: 9.00am - 1.00pm
South Derbyshire District Council,http://www.south-derbys.gov.uk/,http://www.south-derbys.gov.uk/contact_us/,17UK,Civic Offices,Civic Way,Swadlincote,,Derbyshire,DE11 0AH,,01283 595 795,,,,,01283 595 964,customer.services@south-derbys.gov.uk,
South Gloucestershire Council,http://www.southglos.gov.uk/,http://www.southglos.gov.uk/site-contact,00HD,The Council Offices,Castle Street,Thornbury,,South Gloucestershire,BS35 1HF,,01454 868 009,,,,,,corporatecontactcentre@southglos.gov.uk,
South Hams District Council,http://www.south-hams-dc.gov.uk/,http://www.southhams.gov.uk/spec-contact-us,18UG,Follaton House,Plymouth Road,Totnes,,Devon,TQ9 5NE,,01803 861 234,Out of hours emergency,01803 867 034,,,01803 866 151,customer.services@southhams.gov.uk,
South Holland District Council,http://www.sholland.gov.uk/,http://www.sholland.gov.uk/contact,32UF,Council Offices,Priory Road,Spalding,,Lincolnshire,PE11 2XE,,01775 761 161,,,,,01775 711 253,info@sholland.gov.uk,
South Kesteven District Council,http://www.southkesteven.gov.uk/,http://www.southkesteven.gov.uk/ContactUs/,32UG,Council Offices,St Peters Hill,Grantham,,Lincolnshire,NG31 6PZ,,01476 406 080,,,,,01476 406 000,frontdesk@southkesteven.gov.uk,
South Lakeland District Council,http://www.southlakeland.gov.uk/,http://www.southlakeland.gov.uk/contactus,16UG,South Lakeland House,Lowther Street,Kendal,,,LA9 4UF,,0845 050 4434,,,,,01539 740 300,info@southlakeland.gov.uk,
South Norfolk District Council,http://www.south-norfolk.gov.uk/,http://www.south-norfolk.gov.uk/haveyoursay/590.asp,33UH,South Norfolk House,Swan Lane,Long Stratton,,Norfolk,NR15 2XE,,01508 533 633,,,,,,reception@s-norfolk.gov.uk,
South Northamptonshire Council,http://www.southnorthants.gov.uk/,http://www.southnorthants.gov.uk/Contactus.htm,34UG,Springfields,,Towcester,,Northants,NN12 6AE,,0845 230 0226,Out of hours emergency,01327 322 399,,,01327 322 074,customerservice@southnorthants.gov.uk,
South Oxfordshire District Council,http://www.southoxon.gov.uk/,http://www.southoxon.gov.uk/contact-us,38UD,Benson Lane,Crowmarsh Gifford,Wallingford,,Oxfordshire,OX10 8ED,,01491 823 000,Out of hours emergency,01491 824 033,,,01491 823 001,info@southoxon.gov.uk,
South Ribble Borough Council,http://www.southribble.gov.uk/,http://www.southribble.gov.uk/section.asp?catid=300194,30UN,Civic Centre,West Paddock,Leyland,,,PR25 1DH,,01772 421 491,,,,,01772 622 287,info@southribble.gov.uk,
South Somerset District Council,http://www.southsomerset.gov.uk/,http://www.southsomerset.gov.uk/index.jsp?articleid=7235,40UD,Council Offices,Brympton Way,Yeovil,,Somerset,BA20 2HT,,01935 462 462,,,,,,,
South Staffordshire Council,http://www.sstaffs.gov.uk/,http://www.sstaffs.gov.uk/Default.aspx?page=1498,41UF,Council Offices,Wolverhampton Road,Codsall,,South Staffordshire,WV8 1PX,,01902 696 000,,,,,01902 696 800,info@sstaffs.gov.uk,
South Tyneside Council,http://www.southtyneside.info/,http://www.southtyneside.info/article/8601/Contact-us,00CL,Town Hall and Civic Offices,Westoe Road,South Shields,,Tyne and Wear,NE33 2RL,Customer contact centre,0191 427 7000,,,,,,customerhelp@southtyneside.gov.uk,
Southampton City Council,http://www.southampton.gov.uk/,http://www.southampton.gov.uk/customer-service/contact/,00MS,Civic Centre,,Southampton,,Hampshire,SO14 7LY,Switchboard,023 8022 3855,Out of hours emergency,023 8023 3344,,,,gateway@southampton.gov.uk,
Southend-on-Sea Borough Council,http://www.southend.gov.uk/,http://www.southend.gov.uk/contact.asp?,00KF,Ground Floor,Civic Centre,Southend on Sea,,Essex,SS2 6ER,,01702 215 000,,,,,01702 534 196,council@southend.gov.uk,8:45am to 5:15pm
London Borough of Southwark,http://www.southwark.gov.uk,http://www.southwark.gov.uk/contact,00BE,Town Hall,Peckham Road,London,,,SE5 8UB,Switchboard,020 7525 5000,,,,,,csc@southwark.gov.uk,On the main switchboard number 8AM - 6PM
Spelthorne Borough Council,http://www.spelthorne.gov.uk/,http://www.spelthorne.gov.uk/article/2182/Contact-us,43UH,Council Offices,Knowle Green,Staines,,Surrey,TW18 1XB,Reception,01784 451 499,,,,,01784 463 356,customer.services@spelthorne.gov.uk,
St Albans District Council,http://www.stalbans.gov.uk/,http://www.stalbans.gov.uk/sitetools/contact-us.aspx,26UG,Civic Centre,St Peters Street,St Albans,,Hertfordshire,AL1 3JE,Customer services,01727 866 100,Out of hours emergency,01727 811 155,,,,webmaster@stalbans.gov.uk,
St Helens Metropolitan Borough Council,http://www.sthelens.gov.uk,http://www.sthelens.gov.uk/contactus,00BZ,Contact Centre,Wesley House,St Helens,,Merseyside,WA10 1HF,,01744 676 789,Out of hours emergency,01744 456 728,,,01744 456 895,contactcentre@sthelens.gov.uk,
Stafford Borough Council,http://www.staffordbc.gov.uk/,http://www.staffordbc.gov.uk/live/cme3.htm,41UG,Civic Centre,Riverside,Stafford,,Staffordshire,ST16 3AQ,Customer contact centre,01785 619 000,,,,,01785 619 219,customercontactcentre@staffordbc.gov.uk,
Staffordshire County Council,http://www.staffordshire.gov.uk/,http://www.staffordshire.gov.uk/contactus.aspx,41,County Buildings,St Chads Place,Stafford,,,ST16 2LR,,01785 223 121,,,,,01785 215 153,webmaster@staffordshire.gov.uk,
Staffordshire Moorlands District Council,http://www.staffsmoorlands.gov.uk/,http://www.staffsmoorlands.gov.uk/sm/contact-us,41UH,Moorlands House,Stockwell Street,Leek,,Staffordshire,ST13 6HQ,Customer service centre,0845 605 3010,,,,,01538 483 474,customer.services@staffsmoorlands.gov.uk,
Stevenage Borough Council,http://www.stevenage.gov.uk/,http://www.stevenage.gov.uk/,26UH,Daneshill House,Danestrete,Stevenage,,Hertfordshire,SG1 1HN,,01438 242 242,,,,,01438 242 566,csc@stevenage.gov.uk,
Stockport Metropolitan Borough Council,http://www.stockport.gov.uk/,http://www.stockport.gov.uk/services/councildemocracy/your_council/contactyourcouncil/,00BS,Town Hall,Edward Street,Stockport,,,SK1 3XE,,0161 480 4949,,,,,0161 217 6020,stockportdirect@stockport.gov.uk,8.30 - 5pm Mon - Thurs and 8.30 -4.30 on Friday
Stockton-on-Tees Borough Council,http://www.stockton.gov.uk/,http://www.stockton.gov.uk/contact/,00EF,Municipal Buildings,PO Box 11,Stockton-on-Tees,,,TS18 1LD,,01642 393 939,,,,,,customercomments@stockton.gov.uk,
Stoke-on-Trent City Council,http://www.stoke.gov.uk/,http://www.stoke.gov.uk/ccm/content/council-and-democracy/contact-us.en,00GL,Civic Centre,Glebe Street,,Stoke-on-Trent,Staffordshire,ST4 1HH,,01782 234234,,,,,,enquiries@stoke.gov.uk,8.45am to 5pm
Stratford-on-Avon District Council,http://www.stratford.gov.uk/,http://www.stratford.gov.uk/toolkit/contact.cfm,44UE,Elizabeth House,Church Street,Stratford upon Avon,,Warwickshire,CV37 6HX,,01789 267 575,,,,,01789 260 007,info@stratford-dc.gov.uk,
Stroud District Council,http://www.stroud.gov.uk/,http://www.stroud.gov.uk/docs/contact.asp?did contdets,23UF,Ebley Mill,Westward Road,Stroud,,Gloucestershire,GL5 4UB,Switchboard,01453 766 321,Out of hours emergency,01452 532 467,,,,web.comments@stroud.gov.uk,
Suffolk County Council,http://www.suffolk.gov.uk/,http://www.suffolk.gov.uk/about/contact-us/,42,Endeavour House,8 Russell Road,Ipswich,,Suffolk,IP1 2BX,General enquiries,0845 606 6067,Switchboard,01473 583 000,,,,customerservice@csduk.com,
Suffolk Coastal District Council,http://www.suffolkcoastal.gov.uk/,http://www.suffolkcoastal.gov.uk/yourcouncil/contactus,42UG,Melton Hill,,Woodbridge,,Suffolk,IP12 1AU,General enquiries,01394 383 789,Out of hours emergency,07771 816 535,,,01394 385 100,customerservices@suffolkcoastal.gov.uk,
Sunderland City Council,http://www.sunderland.gov.uk/,http://www.sunderland.gov.uk/index.aspx?articleid 1442&formid 10,00CM,Civic Centre,Burdon Road,,Sunderland,,SR2 7DN,,0191 520 5555,,,,,0191 553 1020,enquiries@sunderland.gov.uk,
Surrey County Council,http://www.surreycc.gov.uk/,http://www.surreycc.gov.uk/contact-us,43,"Room 296, County Hall",Penrhyn Road,Kingston upon Thames,,Surrey,KT1 2DW,General enquiries,0345 600 9009,,,,,020 8541 9004,contact.centre@surreycc.gov.uk,
Surrey Heath Borough Council,http://www.surreyheath.gov.uk/,http://www.surreyheath.gov.uk/council/CustomerContactCentre/,43UJ,Surrey Heath House,Knoll Road,Camberley,,Surrey,GU15 3HD,,01276 707 100,,,,,01276 707 177,enquiries@surreyheath.gov.uk,
London Borough of Sutton,http://www.sutton.gov.uk/,http://www.sutton.gov.uk/index.aspx?articleid=5636,00BF,Civic Offices,St. Nicholas Way,Sutton,,,SM1 1EA,,020 8770 5000,,,,,,webadmin@sutton.gov.uk,
Swale Borough Council,http://www.swale.gov.uk/,http://www.swale.gov.uk/contact-us,29UM,Swale House,East Street,Sittingbourne,,Kent,ME10 3HT,Customer Service Centre,01795 417 850,,,,,01795 417 141,csc@swale.gov.uk,
Swindon Borough Council,http://www.swindon.gov.uk/,http://www.swindon.gov.uk/customerfeedback,00HX,Civic Offices,Euclid Street,Swindon,,Wiltshire,SN1 2JH,General enquiries,01793 445 500,,,,,,customerservices@swindon.gov.uk,
Tameside Metropolitan Borough Council,http://www.tameside.gov.uk/,http://www.tameside.gov.uk/contact,00BT,Council Offices,Wellington Road,Ashton-under-Lyne,,,OL6 6DL,,0161 342 8355,,,,,0161 342 3070,customer.services@tameside.gov.uk,
Tamworth Borough Council,http://www.tamworth.gov.uk/,http://www.tamworth.gov.uk/online_forms/contact_us_online.aspx,41UK,Marmion House,Lichfield Street,Tamworth,,Staffordshire,B79 7BZ,,01827 709 709,,,,,,enquiries@tamworth.gov.uk,
Tandridge District Council,http://www.tandridge.gov.uk/,http://www.tandridge.gov.uk/YourCouncil/Contactus/contact.htm,43UK,Station Road East,,Oxted,,Surrey,RH8 0BT,,01883 722 000,,,,,01883 722 015,the.council@tandridge.gov.uk,
Taunton Deane Borough Council,http://www.tauntondeane.gov.uk,http://www.tauntondeane.gov.uk/irj/public/contactus,40UE,The Deane House,Belvedere Road,Taunton,,Somerset,TA1 1HE,Customer services,01823 356 356,Emergency helpline (24 hours),01823 351 411,,,01823 356 329,enquiries@tauntondeane.gov.uk,
Teignbridge District Council,http://www.teignbridge.gov.uk,http://www.teignbridge.gov.uk/index.aspx?articleid=3165,18UH,Forde House,Brunel Road,Newton Abbot,,Devon,TQ12 4XX,,01626 361 101,,,,,01626 215 182,info@teignbridge.gov.uk,
Telford & Wrekin Council,http://www.telford.gov.uk,http://www.telford.gov.uk/contact,00GF,Civic Offices,,Telford,,,TF3 4WZ,Switchboard,01952 380 000,,,,,,contact@telford.gov.uk,
Tendring District Council,http://www.tendringdc.gov.uk/,http://www.tendringdc.gov.uk/council/consultation-contact-and-complaints/contacting-council,22UN,Town Hall,Station Road,Clacton on Sea,,Essex,CO15 1SE,Switchboard,01255 686 868,Out of hours emergency,01255 222 022,,,,,
Test Valley Borough Council,http://www.testvalley.gov.uk/,http://www.testvalley.gov.uk/Default.aspx?page=4600,24UN,Beech Hurst,Weyhill Road,Andover,,Hampshire,SP10 3AJ,,01264 368 000,,,,,01264 368 149,info@testvalley.gov.uk,
Tewkesbury Borough Council,http://www.tewkesbury.gov.uk/,http://www.tewkesbury.gov.uk/index.cfm?articleid=1040,23UG,Council Offices,Gloucester Road,Tewkesbury,,Gloucestershire,GL20 5TT,,01684 295 010,,,,,01684 272 039,enquiries@tewkesbury.gov.uk,
Thanet District Council,http://www.thanet.gov.uk/,http://www.thanet.gov.uk/advice__benefits/council_departments.aspx,29UN,PO Box 9,Cecil Street,Margate,,Kent,CT9 1XZ,Switchboard,01843 577 000,,,,,01843 290 906,customer.services@thanet.gov.uk,
Three Rivers District Council,http://www.threerivers.gov.uk/,http://www.threerivers.gov.uk/Default.aspx/Web/EmailContactForm,26UJ,Three Rivers House,Northway,Rickmansworth,,Hertfordshire,WD3 1RL,,01923 776 611,,,,,,enquiries@threerivers.gov.uk,
Thurrock Council,http://www.thurrock.gov.uk/,http://www.thurrock.gov.uk/contact/,00KG,Civic Offices,New Road,Grays,,Essex,RM17 6SL,General enquiries,01375 652 652,Out of hours emergency,01375 372 468,,,01375 652 359,general.enquiries@thurrock.gov.uk,
Tonbridge & Malling Borough Council,http://www.tmbc.gov.uk,http://www.tmbc.gov.uk/contact-us,29UP,Gibson Building,"Gibson Drive, Kings Hill,",West Malling,,Kent,ME19 4LZ,Switchboard,01732 844 522,,,,,01732 842 170,admin.services@tmbc.gov.uk,
Torbay Council,http://www.torbay.gov.uk/,http://www.torbay.gov.uk/contactus,00HH,Town Hall,Castle Circus,Torquay,,Devon,TQ1 3DR,,01803 207201,,,,,01803 207 121,connections@torbay.gov.uk,
Torridge District Council,http://www.torridge.gov.uk/,http://www.torridge.gov.uk/index.aspx?articleid 2032,18UK,Riverbank House,,Bideford,,Devon,EX39 2QG,General enquiries,01237 428 700,,,,,01237 478 849,,
London Borough of Tower Hamlets,http://www.towerhamlets.gov.uk/,http://www.towerhamlets.gov.uk/content_pages/contacts.aspx,00BG,Town Hall,Mulberry Place,London,,,E14 2BG,General enquiries,020 7364 5000,,,,,,generalenquiries@towerhamlets.gov.uk,
Trafford Metropolitan Borough Council,http://www.trafford.gov.uk/,http://www.trafford.gov.uk/contactus,00BU,Trafford Town Hall,Talbot Road,Stretford,,Manchester,M32 0TH,General enquiries,0161 912 2000,Out of hours emergency,0161 912 2020,,,0161 912 1866,access.trafford@trafford.gov.uk,
Tunbridge Wells Borough Council,http://www.tunbridgewells.gov.uk/,http://www.tunbridgewells.gov.uk/,29UQ,Town Hall,Civic Way,Royal Tunbridge Wells,,Kent,TN1 1RS,Switchboard,01892 526 121,Out of hours emergency,01892 515 392,,,01892 534 227,info@tunbridgewells.gov.uk,
Uttlesford District Council,http://www.uttlesford.gov.uk/,http://www.uttlesford.gov.uk/main.cfm?Type=CU,22UQ,Council Offices,London Road,Saffron Walden,,Essex,CB11 4ER,,01799 510 510,,,,,01799 510 550,uconnect@uttlesford.gov.uk,
Vale of White Horse District Council,http://www.whitehorsedc.gov.uk/,http://www.whitehorsedc.gov.uk/contact-us,38UE,Abbey House,Abbey Close,Abingdon,,Oxfordshire,OX14 3JE,,01235 520 202,Out of hours emergency,01235 524 886,,,,comments@whitehorsedc.gov.uk,
Wakefield Metropolitan District Council,http://www.wakefield.gov.uk/,http://www.wakefield.gov.uk/CouncilAndDemocracy/contactthecouncil/default.htm,00DB,Town Hall,Wood Street,Wakefield,,,WF1 2HQ,Switchboard,01924 306 090,Contact centre,08458506506,,,,es-contactcentre@wakefield.gov.uk,
Walsall Metropolitan Borough Council,http://www.walsall.gov.uk/,http://www.walsall.gov.uk/index/council_and_democracy/contact_us.htm,00CU,The Civic Centre,,Walsall,,West Midlands,WS1 1TP,,01922 650 000,,,,,01922 720 885,info@walsall.gov.uk,http://www.walsall.gov.uk/index/council_and_democracy/contact_us.htm
London Borough of Waltham Forest,http://www.walthamforest.gov.uk/pages/index.aspx,http://www.walthamforest.gov.uk/pages/services/contact-us.aspx,00BH,Town Hall,Forest Road,London,,,E17 4JF,Waltham Forest Direct,020 8496 3000,,,Minicom,020 8496 3010,020 8496 3301,wfdirect@walthamforest.gov.uk,
London Borough of Wandsworth,http://www.wandsworth.gov.uk/,http://www.wandsworth.gov.uk/contact,00BJ,The Town Hall,Wandsworth High Street,London,,,SW18 2PU,Switchboard,020 8871 6000,,,,,,enquiries@wandsworth.gov.uk,
Warrington Borough Council,http://www.warrington.gov.uk/,http://www.warrington.gov.uk/contact/,00EU,Contact Warrington,Horsemarket Street,Warrington,,Cheshire,WA1 1XL,General enquiries,01925 443322,Out of hours emergencies,01925 444400,,,01925 443211,,
Warwick District Council,http://www.warwickdc.gov.uk/,http://www.warwickdc.gov.uk/WDC/Contact Us/ContactUs.htm,44UF,Riverside House,Milverton Hill,Leamington Spa,,,CV32 5HZ,Switchboard,01926 450 000,,,,,01926 456 509,contactus@warwickdc.gov.uk,
Warwickshire County Council,http://www.warwickshire.gov.uk/,http://www.warwickshire.gov.uk/web/corporate/webmailf.nsf/feedbackpicker?openform&~1~PageSpecific~2~Warwickshire+Web+Home+Page+~3~Feedback@warwickshire.gov.uk~4~http://www.warwickshire.gov.uk/home~5~Warwickshire+Web+Home+Page+~6~,44,Shire Hall,,Warwick,,Warwickshire,CV34 4SA,,01926 410 410,,,,,01926 412 377,,
Watford Borough Council,http://www.watford.gov.uk/,http://www.watford.gov.uk/ccm/content/strategic-services/home-page-content/contact-us.en,26UK,Town Hall,,Watford,,Hertfordshire,WD17 3EX,,01923 226 400,,,,,01923 278 100,enquiries@watford.gov.uk,Monday to Friday 8.30am until 5.30pm
Waveney District Council,http://www.waveney.gov.uk/,http://www.waveney.gov.uk/site/scripts/documents_info.php?documentID=625&categoryID=200026,42UH,Town Hall,High Street,Lowestoft,,Suffolk,NR32 1HS,,01502 562 111,,,,,,info@waveney.gov.uk,
Waverley Borough Council,http://www.waverley.gov.uk/,http://www.waverley.gov.uk/contact,43UL,The Burys,,Godalming,,Surrey,GU7 1HR,,01483 523 333,Out of hours emergency,02392 242 161,,,01483 426 337,enquiries@waverley.gov.uk,
Wealden District Council,http://www.wealden.gov.uk/,http://www.wealden.gov.uk/Wealden/Contact_Us.aspx,21UH,Vicarage Lane,,Hailsham,,East Sussex,BN27 2AX,Hailsham Office and Crowborough Office,01323 443 322 or 01892 653 311,Out of hours emergency,01323 410 051,Minicom,01323 443331,01323 443 333,info@wealden.gov.uk,Our offices are open Monday to Friday 8:30 am to 5:00 pm
Wellingborough Borough Council,http://www.wellingborough.gov.uk/,http://www.wellingborough.gov.uk/contact,34UH,Swanspool House,Doddington Road,Wellingborough,,Northamptonshire,NN8 1BP,,01933 229 777,,,,,01933 231 543,customerservices@wellingborough.gov.uk,
Welwyn Hatfield Council,http://www.welhat.gov.uk/,http://www.welhat.gov.uk/contact,26UL,Council Offices,The Campus,Welwyn Garden City,,Hertfordshire,AL8 6AE,General enquiries,01707 357 000,Out of hours emergency,0800 111 4484,,,,contact-WHC@welhat.gov.uk,
West Berkshire Council,http://www.westberks.gov.uk/,http://www.westberks.gov.uk/,00MB,Council Offices,Market Street,Newbury,,West Berkshire,RG14 5LD,Switchboard,01635 424 00,,,,,01635 519 479,info@westberks.gov.uk,
West Devon Borough Council,http://www.westdevon.gov.uk/,http://www.westdevon.gov.uk/doc.asp?doc=6968&CAT=1240,18UL,Kilworthy Park,,Tavistock,,Devon,PL19 0BZ,,01822 813 600,,,,,01822 813 634,info@westdevon.gov.uk,9:00AM to 5:00PM (09:00 to 17:00)
West Dorset District Council,http://www.dorsetforyou.com/,http://www.dorsetforyou.com/index.jsp?articleid=387927,19UH,Stratton House,58-60 High West Street,Dorchester,,Dorset,DT1 1UZ,Switchboard (includes Typetalk calls),01305 251 010,Out of hours emergency,01305 250 365,,,,custservices@westdorset-dc.gov.uk,
West Lancashire Borough Council,http://www.westlancs.gov.uk/,http://www.westlancs.gov.uk/council__democracy/contact_us.aspx,30UP,P O Box 16,52 Derby Street,Ormskirk,,Lancashire,L39 2DF,Customer services,01695 577 177,,,,,,customer.services@westlancs.gov.uk,
West Lindsey District Council,http://www.west-lindsey.gov.uk/,http://www.west-lindsey.gov.uk/contact-the-council/,32UH,The Guildhall,Marshalls Yard,Gainsborough,,Lincolnshire,DN21 2NA,Customer services,01427 676 676,Out of hours emergency,01427 613 960,,,01427 675 170,customer.relations@west-lindsey.gov.uk,
West Oxfordshire District Council,http://www.westoxon.gov.uk/,http://www.westoxon.gov.uk/furtherinfo/contactus.cfm,38UF,Town Centre Shop,3 Welch Way,Witney,,Oxfordshire,OX28 6JH,Switchboard,01993 861 000,Out of hours emergency,01993 705 056,,,01993 861 050,enquiries@westoxon.gov.uk,
West Somerset District Council,http://www.westsomersetonline.gov.uk/,http://www.westsomersetonline.gov.uk/Contact-and-Find-Us,40UF,West Somerset House,Killick Way,Williton,Taunton,Somerset,TA4 4QA,,01643 703 704,,,,,01984 633 022,customerservices@westsomerset.gov.uk,
West Sussex County Council,http://www.westsussex.gov.uk/,http://www.westsussex.gov.uk/contact-us/,45,County Hall,West Street,Chichester,,West Sussex,PO19 1RQ,,01243 777 100,24 hour helpline,08457 581 232,,,,,
London Borough of Westminster,http://www.westminster.gov.uk/,http://www3.westminster.gov.uk/forms/contact_council.cfm,00BK,P.O. Box 240,Westminster City Hall,London,,,SW1E 6QP,Customer enquiry line,020 7641 6000,,,,,020 7645 5510,,
Weymouth and Portland Borough Council,http://www.weymouth.gov.uk/,http://www.weymouth.gov.uk/home.asp?sv 4,19UJ,Council Offices,North Quay,Weymouth,,Dorset,DT4 8TA,Customer contact centre,01305 838242,,01305 252353,,,,,
Wigan Metropolitan Borough Council,http://www.wigan.gov.uk,http://www.wigan.gov.uk/Contacts,00BW,Town Hall,Library Street,Wigan,,,WN1 1YN,General enquiries,01942 244 991,,,,,,,
Wiltshire Council (Unitary),http://www.wiltshire.gov.uk/,http://www.wiltshire.gov.uk/contact.htm,00HY,County Hall,Bythesea Road,Trowbridge,,Wiltshire,BA14 8JN,,0300 456 0100,,,,,01225 713 145,customerservices@wiltshire.gov.uk,
Winchester City Council,http://www.winchester.gov.uk/,http://www.winchester.gov.uk/about/contacting-us/,24UP,City Offices,Colebrook Street,Winchester,,Hampshire,SO23 9LJ,Switchboard,01962 840 222,,,,,01962 841 365,info@winchester.gov.uk,
Royal Borough of Windsor and Maidenhead,http://www.rbwm.gov.uk/,http://www.rbwm.gov.uk/contacts.htm,00ME,Town Hall,St Ives Road,Maidenhead,,Berkshire,SL6 1RF,Customer service centre,01628 683800,Out of hours emergency,01753 853 517,,,01628 795757,customer.service@rbwm.gov.uk,
Wirral Council,http://www.wirral.gov.uk/,http://www.wirral.gov.uk/my-services/advice-and-benefits/contact-council,00CB,Town Hall,Brighton Street,Wallasey,,Wirral,CH44 8ED,General switchboard,0151 606 2000,,,,,,comments@wirral.gov.uk,
Woking Borough Council,http://www.woking.gov.uk/,http://www.woking.gov.uk/contact,43UM,Civic Offices,Gloucester Square,Woking,,Surrey,GU21 6YL,,01483 755 855,,,,,,customers@woking.gov.uk,
Wokingham Borough Council,http://www.wokingham.gov.uk/,http://www.wokingham.gov.uk/contacts/,00MF,Civic Offices,Shute End,Wokingham,,Surrey,RG40 1BN,,01189 746 000,Out of hours emergency,0800 212 111,,,01189 789 078,wokinghambc@wokingham.gov.uk,
Wolverhampton City Council,http://www.wolverhampton.gov.uk,http://www.wolverhampton.gov.uk/Contact_us,00CW,Civic Centre,St. Peters Square,,Wolverhampton,West Midlands,WV1 1SH,Customer services,01902 551155,Switchboard,01902 556556,Minicom,01902 555554,01902 551195,city.direct@wolverhampton.gov.uk,"Monday to Thursday, 8.30am to 5pm. Friday, 8.30am to 4.30pm"
Worcester City Council,http://www.worcester.gov.uk/,http://www.worcester.gov.uk/index.php?id 476,47UE,Orchard House Complex,Farrier Street,Worcester,,Worcestershire,WR1 3BB,Switchboard,01905 722 233,,,,,01905 722 255,customerservicecentre@worcester.gov.uk,
Worcestershire County Council,http://www.worcestershire.gov.uk,http://www.worcestershire.gov.uk/cms/get-in-touch.aspx,47,County Hall,Spetchley Road,,Worcester,Worcestershire,WR5 2NP,,01905 763 763,,,,,,,
Worthing Borough Council,http://www.worthing.gov.uk/,http://www.worthing.gov.uk/contact-us/,45UH,Town Hall,Chapel Road,Worthing,,West Sussex,BN11 1HA,,01903 239 999,,,,,01903 236 552,enquiries@worthing.gov.uk,
Wychavon District Council,http://www.wychavon.gov.uk/,http://www.wychavon.gov.uk/cms/council-and-democracy/get-in-touch-with-wychavon.aspx,47UF,Civic Centre,Queen Elizabeth Drive,Pershore,,Worcestershire,WR10 1PT,General enquiries,01386 565 000,Out of hours emergency,08450 568 035,,,01386 565 290,customerservices@wychavon.gov.uk,
Wycombe District Council,http://www.wycombe.gov.uk/,http://www.wycombe.gov.uk/contact-us.aspx,11UF,Queen Victoria Road,,High Wycombe,,Buckinghamshire,HP11 1BB,Switchboard,01494 461 000,Out of hours emergency,01494 463 690,,,01494 461 292,,
Wyre Council,http://www.wyre.gov.uk,http://www.wyre.gov.uk/contact/,30UQ,Civic Centre,Breck Road,Poulton-le-Fylde,,Lancashire,FY6 7PU,,01253 891 000,Out of hours emergency,01253 895 116,,,01253 899 000,mailroom@wyre.gov.uk,
Wyre Forest District Council,http://www.wyreforestdc.gov.uk/cms/default.aspx,http://www.wyreforestdc.gov.uk/cms/non-lgnl-pages/corporate/contact-us.aspx,47UG,Civic Centre,,Stourport-on-Severn,,,DY13 8UJ,Customer Services,01562 732 928,Out of hours &#40;emergencies only&#41;,01562 850053,,,,worcestershirehub@wyreforestdc.gov.uk,
City of York Council,http://www.york.gov.uk,http://www.york.gov.uk/contact/,00FF,Library Square,,,York,North Yorkshire,YO1 7DU,General enquiries,01904 551 550,,,,,01904 553 560,ycc@york.gov.uk,
Barrow-in-Furness Borough Council,http://www.barrowbc.gov.uk/,http://www.barrowbc.gov.uk/main.asp?page=2677,16UC,Town Hall,Duke Street,Barrow in Furness,,Cumbria,LA14 2LD,Main switchboard,01229 876 300,,,,,01229 876317,admin@barrowbc.gov.uk,
Bury Metropolitan Borough Council,http://www.bury.gov.uk/,http://www.bury.gov.uk/index.aspx?articleid=5670&contactusID=1125&ArticleReferenceId=1,00BM,Town Hall,Knowsley Street,Bury,,Lancashire,BL9 OSW,Switchboard,01612 535 000,Out of hours emergency,0161 253 5000,,,,info@bury.gov.uk,
Dudley Metropolitan Borough Council,http://www.dudley.gov.uk/,http://www.dudley.gov.uk/contact-us/,00CR,Council House,Priory Road,Dudley,,West Midlands,DY1 1HF,Customer services,01384 812 345,Out of hours emergency,01384 818 283,,,,dudleycouncilplus@dudley.gov.uk,
London Borough of Ealing,http://www.ealing.gov.uk/,http://www.ealing.gov.uk/site/scripts/home_info.php?homepageID=32,00AJ,Perceval House,14-16 Uxbridge Road,London,,,W5 2HL,Switchboard,020 8825 5000,,,,,,customers@ealing.gov.uk,
Elmbridge Borough Council,http://www.elmbridge.gov.uk/,http://www.elmbridge.gov.uk/atoz/detail.htm?pk_services=515,43UB,Civic Centre,High Street,Esher,,Surrey,KT10 9SD,Switchboard,01372 474 474,Out of hours emergency,01372 466 114,,,01372 474 972,contactus@elmbridge.gov.uk,
Gateshead Metropolitan Borough Council,http://www.gateshead.gov.uk/,http://www.gateshead.gov.uk/CouncilContacts/contacts.aspx,00CH,Civic Centre,Regent Street,Gateshead,,Tyne and Wear,NE8 1HH,Switchboard,01914 333 000,,,,,,customerservices@gateshead.gov.uk,
Hambleton District Council,http://www.hambleton.gov.uk/,http://www.hambleton.gov.uk/contactus.htm,36UC,Civic Centre,Stone Cross,Northallerton,,North Yorkshire,DL6 2UU,Contact centre,0845 121 1555,Type talk,18001 0845 1211 555,,,,info@hambleton.gov.uk,
Middlesbrough Borough Council,http://www.middlesbrough.gov.uk/,http://www.middlesbrough.gov.uk/index.aspx?articleid=2929,00EC,PO Box 99A,Town Hall,Middlesbrough,,,TS1 2QQ,Customer services,01642 245 432,Out of hours emergency,01642 126 009,,,,contactcentre@middlesbrough.gov.uk,
St Edmundsbury Borough Council,http://www.stedmundsbury.gov.uk/,http://www.stedmundsbury.gov.uk/council_and_democracy/your_council/ContactUs.cfm,42UF,West Suffolk House,Western Way,Bury St Edmunds,,Suffolk,IP33 3YU,Customer Services,01284 763233,,,,,01284757378,stedmundsbury@stedsbc.gov.uk,Monday to Friday 8.45am to 5pm
Bristol City Council,http://www.bristol.gov.uk/,http://www.bristol.gov.uk/contact,00HB,The Council House,College Green,Bristol,,,BS1 5TR,Switchboard,0117 922 2000,Out of hours emergency,0117 922 2050,,,,customer.services@bristol.gov.uk,
Royal Borough of Kingston upon Thames,http://www.kingston.gov.uk,http://www.kingston.gov.uk/contact_us,00AX,Guildhall,High Street,Kingston upon Thames,,,KT1 1EU,Helpline,020 8547 5000,Out of hours emergency,020 8547 5800,,,,contact.us@rbk.kingston.gov.uk,"Monday to Friday, from 8am to 6pm"
Newcastle-Under-Lyme District Council,http://www.newcastle-staffs.gov.uk/,http://www.newcastle-staffs.gov.uk/online_content.asp?id SXE7A1-A7809AA1,41UE,Civic Offices,Merrial Street,Newcastle under Lyme,,Staffordshire,ST5 2AG,Switchboard,01782 717 717,Out of hours emergency,01782 615 599,,,,customerservices@newcastle-staffs.gov.uk,
Borough of Poole,http://www.boroughofpoole.com/,http://www.poole.gov.uk/categories.asp?id=A22E77384A6C49&title=Contact us,00HP,Civic Centre,Municipal Road,Poole,,Dorset,BH15 2RU,,01202 633 633,Out of hours emergency,0800 506 050,,,,enquiries@boroughofpoole.com,
Central Bedfordshire Council,http://www.centralbedfordshire.gov.uk,http://www.centralbedfordshire.gov.uk/contact-us/default.aspx,00KC,Central Bedfordshire Council,Priory House,Monks Walk,Chicksands,Bedfordshire,SG17 5TQ,,0300 300 8000,,,,,,customer.services@centralbedfordshire.gov.uk,
Cheshire West and Chester Council,http://www.cheshirewestandchester.gov.uk/,http://www.cheshirewestandchester.gov.uk/default.aspx?page 35,00EW,HQ,"58 Nicholas Street,",,Chester,Cheshire,CH1 2NP,Customer service centre,0300 123 8 123,,,BT Text direct operator,18001 01606 867 670,,enquiries@cheshirewestandchester.gov.uk,
